{"type": "FeatureCollection", "features": [{"type": "Feature", "geometry": {"type": "Point", "coordinates": [109.33728, -0.09722]}, "properties": {"kab_kota": "KOTA PONTIANAK", "kecamatan": "Pontianak Tenggara", "desa": "Kelurahan Bangka Belitung Darat", "tanggal": "2026-08-07", "timestamp": "2026-08-07T20:44:00+07:00", "satelit": "NASA-MODIS", "confidence": "High"}}, {"type": "Feature", "geometry": {"type": "Point", "coordinates": [109.32029, -0.07981]}, "properties": {"kab_kota": "KOTA PONTIANAK", "kecamatan": "Pontianak Selatan", "desa": "Kelurahan Parittokaya", "tanggal": "2026-08-29", "timestamp": "2026-08-29T20:18:00+07:00", "satelit": "NASA-MODIS", "confidence": "Medium"}}, {"type": "Feature", "geometry": {"type": "Point", "coordinates": [109.33227, -0.09435]}, "properties": {"kab_kota": "KOTA PONTIANAK", "kecamatan": "Pontianak Tenggara", "desa": "Kelurahan Bansir Darat", "tanggal": "2026-08-08", "timestamp": "2026-08-08T12:33:00+07:00", "satelit": "NASA-NOAA20", "confidence": "High"}}, {"type": "Feature", "geometry": {"type": "Point", "coordinates": [109.33522, -0.09487]}, "properties": {"kab_kota": "KOTA PONTIANAK", "kecamatan": "Pontianak Tenggara", "desa": "Kelurahan Bansir Darat", "tanggal": "2026-08-10", "timestamp": "2026-08-10T13:35:00+07:00", "satelit": "NASA-NOAA20", "confidence": "Low"}}, {"type": "Feature", "geometry": {"type": "Point", "coordinates": [109.32359, -0.07448]}, "properties": {"kab_kota": "KOTA PONTIANAK", "kecamatan": "Pontianak Selatan", "desa": "Kelurahan Parittokaya", "tanggal": "2026-08-29", "timestamp": "2026-08-29T01:41:00+07:00", "satelit": "NASA-NOAA20", "confidence": "Medium"}}, {"type": "Feature", "geometry": {"type": "Point", "coordinates": [109.32063, -0.08001]}, "properties": {"kab_kota": "KOTA PONTIANAK", "kecamatan": "Pontianak Selatan", "desa": "Kelurahan Parittokaya", "tanggal": "2026-08-30", "timestamp": "2026-08-30T01:21:00+07:00", "satelit": "NASA-NOAA20", "confidence": "Medium"}}, {"type": "Feature", "geometry": {"type": "Point", "coordinates": [109.32545, -0.07372]}, "properties": {"kab_kota": "KOTA PONTIANAK", "kecamatan": "Pontianak Selatan", "desa": "Kelurahan Parittokaya", "tanggal": "2026-08-30", "timestamp": "2026-08-30T01:21:00+07:00", "satelit": "NASA-NOAA20", "confidence": "Medium"}}, {"type": "Feature", "geometry": {"type": "Point", "coordinates": [109.32282, -0.08173]}, "properties": {"kab_kota": "KOTA PONTIANAK", "kecamatan": "Pontianak Selatan", "desa": "Kelurahan Parittokaya", "tanggal": "2026-08-30", "timestamp": "2026-08-30T12:23:00+07:00", "satelit": "NASA-NOAA20", "confidence": "Medium"}}, {"type": "Feature", "geometry": {"type": "Point", "coordinates": [109.3226, -0.08112]}, "properties": {"kab_kota": "KOTA PONTIANAK", "kecamatan": "Pontianak Selatan", "desa": "Kelurahan Parittokaya", "tanggal": "2026-08-30", "timestamp": "2026-08-30T14:01:00+07:00", "satelit": "NASA-NOAA20", "confidence": "Medium"}}, {"type": "Feature", "geometry": {"type": "Point", "coordinates": [109.32093, -0.07809]}, "properties": {"kab_kota": "KOTA PONTIANAK", "kecamatan": "Pontianak Selatan", "desa": "Kelurahan Parittokaya", "tanggal": "2026-08-31", "timestamp": "2026-08-31T13:44:00+07:00", "satelit": "NASA-NOAA20", "confidence": "Medium"}}, {"type": "Feature", "geometry": {"type": "Point", "coordinates": [109.33733, -0.09963]}, "properties": {"kab_kota": "KOTA PONTIANAK", "kecamatan": "Pontianak Tenggara", "desa": "Kelurahan Bangka Belitung Darat", "tanggal": "2026-08-07", "timestamp": "2026-08-07T12:53:00+07:00", "satelit": "NASA-NOAA20", "confidence": "Medium"}}, {"type": "Feature", "geometry": {"type": "Point", "coordinates": [109.3367, -0.09983]}, "properties": {"kab_kota": "KOTA PONTIANAK", "kecamatan": "Pontianak Tenggara", "desa": "Kelurahan Bangka Belitung Darat", "tanggal": "2026-08-08", "timestamp": "2026-08-08T01:34:00+07:00", "satelit": "NASA-NOAA20", "confidence": "Medium"}}, {"type": "Feature", "geometry": {"type": "Point", "coordinates": [109.33685, -0.09936]}, "properties": {"kab_kota": "KOTA PONTIANAK", "kecamatan": "Pontianak Tenggara", "desa": "Kelurahan Bangka Belitung Darat", "tanggal": "2026-08-08", "timestamp": "2026-08-08T12:33:00+07:00", "satelit": "NASA-NOAA20", "confidence": "Medium"}}, {"type": "Feature", "geometry": {"type": "Point", "coordinates": [109.33661, -0.09722]}, "properties": {"kab_kota": "KOTA PONTIANAK", "kecamatan": "Pontianak Tenggara", "desa": "Kelurahan Bangka Belitung Darat", "tanggal": "2026-08-12", "timestamp": "2026-08-12T12:57:00+07:00", "satelit": "NASA-NOAA20", "confidence": "Medium"}}, {"type": "Feature", "geometry": {"type": "Point", "coordinates": [109.33734, -0.09573]}, "properties": {"kab_kota": "KOTA PONTIANAK", "kecamatan": "Pontianak Tenggara", "desa": "Kelurahan Bansir Darat", "tanggal": "2026-08-08", "timestamp": "2026-08-08T01:34:00+07:00", "satelit": "NASA-NOAA20", "confidence": "Medium"}}, {"type": "Feature", "geometry": {"type": "Point", "coordinates": [109.33369, -0.09516]}, "properties": {"kab_kota": "KOTA PONTIANAK", "kecamatan": "Pontianak Tenggara", "desa": "Kelurahan Bansir Darat", "tanggal": "2026-08-08", "timestamp": "2026-08-08T01:34:00+07:00", "satelit": "NASA-NOAA20", "confidence": "Medium"}}, {"type": "Feature", "geometry": {"type": "Point", "coordinates": [109.33443, -0.09444]}, "properties": {"kab_kota": "KOTA PONTIANAK", "kecamatan": "Pontianak Tenggara", "desa": "Kelurahan Bansir Darat", "tanggal": "2026-08-09", "timestamp": "2026-08-09T01:13:00+07:00", "satelit": "NASA-NOAA20", "confidence": "Medium"}}, {"type": "Feature", "geometry": {"type": "Point", "coordinates": [109.33257, -0.09402]}, "properties": {"kab_kota": "KOTA PONTIANAK", "kecamatan": "Pontianak Tenggara", "desa": "Kelurahan Bansir Darat", "tanggal": "2026-08-10", "timestamp": "2026-08-10T00:56:00+07:00", "satelit": "NASA-NOAA20", "confidence": "Medium"}}, {"type": "Feature", "geometry": {"type": "Point", "coordinates": [109.32845, -0.08944]}, "properties": {"kab_kota": "KOTA PONTIANAK", "kecamatan": "Pontianak Tenggara", "desa": "Kelurahan Bansir Darat", "tanggal": "2026-08-10", "timestamp": "2026-08-10T00:56:00+07:00", "satelit": "NASA-NOAA20", "confidence": "Medium"}}, {"type": "Feature", "geometry": {"type": "Point", "coordinates": [109.33282, -0.08392]}, "properties": {"kab_kota": "KOTA PONTIANAK", "kecamatan": "Pontianak Tenggara", "desa": "Kelurahan Bansir Darat", "tanggal": "2026-08-10", "timestamp": "2026-08-10T13:35:00+07:00", "satelit": "NASA-NOAA20", "confidence": "Medium"}}, {"type": "Feature", "geometry": {"type": "Point", "coordinates": [109.32915, -0.08251]}, "properties": {"kab_kota": "KOTA PONTIANAK", "kecamatan": "Pontianak Tenggara", "desa": "Kelurahan Bansir Darat", "tanggal": "2026-08-10", "timestamp": "2026-08-10T13:35:00+07:00", "satelit": "NASA-NOAA20", "confidence": "Medium"}}, {"type": "Feature", "geometry": {"type": "Point", "coordinates": [109.29868, 0.02857]}, "properties": {"kab_kota": "KOTA PONTIANAK", "kecamatan": "Pontianak Utara", "desa": "Kelurahan Batulayang", "tanggal": "2026-08-30", "timestamp": "2026-08-30T01:21:00+07:00", "satelit": "NASA-NOAA20", "confidence": "Medium"}}, {"type": "Feature", "geometry": {"type": "Point", "coordinates": [109.34657, 0.02604]}, "properties": {"kab_kota": "KOTA PONTIANAK", "kecamatan": "Pontianak Utara", "desa": "Kelurahan Siantan Hilir", "tanggal": "2026-08-09", "timestamp": "2026-08-09T01:13:00+07:00", "satelit": "NASA-NOAA20", "confidence": "Medium"}}, {"type": "Feature", "geometry": {"type": "Point", "coordinates": [109.33276, 0.0306]}, "properties": {"kab_kota": "KOTA PONTIANAK", "kecamatan": "Pontianak Utara", "desa": "Kelurahan Siantan Hilir", "tanggal": "2026-08-11", "timestamp": "2026-08-11T13:18:00+07:00", "satelit": "NASA-NOAA20", "confidence": "Medium"}}, {"type": "Feature", "geometry": {"type": "Point", "coordinates": [109.35002, 0.02549]}, "properties": {"kab_kota": "KOTA PONTIANAK", "kecamatan": "Pontianak Utara", "desa": "Kelurahan Siantan Hulu", "tanggal": "2026-08-09", "timestamp": "2026-08-09T01:13:00+07:00", "satelit": "NASA-NOAA20", "confidence": "Medium"}}, {"type": "Feature", "geometry": {"type": "Point", "coordinates": [109.33316, -0.09411]}, "properties": {"kab_kota": "KOTA PONTIANAK", "kecamatan": "Pontianak Tenggara", "desa": "Kelurahan Bansir Darat", "tanggal": "2026-08-09", "timestamp": "2026-08-09T13:35:00+07:00", "satelit": "NASA-SNPP", "confidence": "Low"}}, {"type": "Feature", "geometry": {"type": "Point", "coordinates": [109.33191, -0.08421]}, "properties": {"kab_kota": "KOTA PONTIANAK", "kecamatan": "Pontianak Tenggara", "desa": "Kelurahan Bansir Darat", "tanggal": "2026-08-10", "timestamp": "2026-08-10T13:18:00+07:00", "satelit": "NASA-SNPP", "confidence": "Low"}}, {"type": "Feature", "geometry": {"type": "Point", "coordinates": [109.34707, 0.02761]}, "properties": {"kab_kota": "KOTA PONTIANAK", "kecamatan": "Pontianak Utara", "desa": "Kelurahan Siantan Hilir", "tanggal": "2026-08-09", "timestamp": "2026-08-09T13:35:00+07:00", "satelit": "NASA-SNPP", "confidence": "Low"}}, {"type": "Feature", "geometry": {"type": "Point", "coordinates": [109.32516, -0.07199]}, "properties": {"kab_kota": "KOTA PONTIANAK", "kecamatan": "Pontianak Selatan", "desa": "Kelurahan Parittokaya", "tanggal": "2026-08-28", "timestamp": "2026-08-28T12:40:00+07:00", "satelit": "NASA-SNPP", "confidence": "Medium"}}, {"type": "Feature", "geometry": {"type": "Point", "coordinates": [109.3272, -0.07433]}, "properties": {"kab_kota": "KOTA PONTIANAK", "kecamatan": "Pontianak Selatan", "desa": "Kelurahan Parittokaya", "tanggal": "2026-08-29", "timestamp": "2026-08-29T01:19:00+07:00", "satelit": "NASA-SNPP", "confidence": "Medium"}}, {"type": "Feature", "geometry": {"type": "Point", "coordinates": [109.31792, -0.07719]}, "properties": {"kab_kota": "KOTA PONTIANAK", "kecamatan": "Pontianak Selatan", "desa": "Kelurahan Parittokaya", "tanggal": "2026-08-30", "timestamp": "2026-08-30T13:42:00+07:00", "satelit": "NASA-SNPP", "confidence": "Medium"}}, {"type": "Feature", "geometry": {"type": "Point", "coordinates": [109.32243, -0.07898]}, "properties": {"kab_kota": "KOTA PONTIANAK", "kecamatan": "Pontianak Selatan", "desa": "Kelurahan Parittokaya", "tanggal": "2026-08-31", "timestamp": "2026-08-31T13:22:00+07:00", "satelit": "NASA-SNPP", "confidence": "Medium"}}, {"type": "Feature", "geometry": {"type": "Point", "coordinates": [109.33699, -0.09878]}, "properties": {"kab_kota": "KOTA PONTIANAK", "kecamatan": "Pontianak Tenggara", "desa": "Kelurahan Bangka Belitung Darat", "tanggal": "2026-08-07", "timestamp": "2026-08-07T12:33:00+07:00", "satelit": "NASA-SNPP", "confidence": "Medium"}}, {"type": "Feature", "geometry": {"type": "Point", "coordinates": [109.335, -0.09711]}, "properties": {"kab_kota": "KOTA PONTIANAK", "kecamatan": "Pontianak Tenggara", "desa": "Kelurahan Bansir Darat", "tanggal": "2026-08-07", "timestamp": "2026-08-07T12:33:00+07:00", "satelit": "NASA-SNPP", "confidence": "Medium"}}, {"type": "Feature", "geometry": {"type": "Point", "coordinates": [109.33493, -0.09615]}, "properties": {"kab_kota": "KOTA PONTIANAK", "kecamatan": "Pontianak Tenggara", "desa": "Kelurahan Bansir Darat", "tanggal": "2026-08-08", "timestamp": "2026-08-08T01:13:00+07:00", "satelit": "NASA-SNPP", "confidence": "Medium"}}, {"type": "Feature", "geometry": {"type": "Point", "coordinates": [109.33295, -0.09507]}, "properties": {"kab_kota": "KOTA PONTIANAK", "kecamatan": "Pontianak Tenggara", "desa": "Kelurahan Bansir Darat", "tanggal": "2026-08-09", "timestamp": "2026-08-09T00:56:00+07:00", "satelit": "NASA-SNPP", "confidence": "Medium"}}, {"type": "Feature", "geometry": {"type": "Point", "coordinates": [109.33257, -0.0902]}, "properties": {"kab_kota": "KOTA PONTIANAK", "kecamatan": "Pontianak Tenggara", "desa": "Kelurahan Bansir Darat", "tanggal": "2026-08-09", "timestamp": "2026-08-09T13:35:00+07:00", "satelit": "NASA-SNPP", "confidence": "Medium"}}, {"type": "Feature", "geometry": {"type": "Point", "coordinates": [109.32822, -0.07503]}, "properties": {"kab_kota": "KOTA PONTIANAK", "kecamatan": "Pontianak Tenggara", "desa": "Kelurahan Bansir Darat", "tanggal": "2026-08-30", "timestamp": "2026-08-30T01:02:00+07:00", "satelit": "NASA-SNPP", "confidence": "Medium"}}, {"type": "Feature", "geometry": {"type": "Point", "coordinates": [109.34547, 0.02726]}, "properties": {"kab_kota": "KOTA PONTIANAK", "kecamatan": "Pontianak Utara", "desa": "Kelurahan Siantan Hilir", "tanggal": "2026-08-08", "timestamp": "2026-08-08T13:57:00+07:00", "satelit": "NASA-SNPP", "confidence": "Medium"}}, {"type": "Feature", "geometry": {"type": "Point", "coordinates": [109.34158, 0.019]}, "properties": {"kab_kota": "KOTA PONTIANAK", "kecamatan": "Pontianak Utara", "desa": "Kelurahan Siantan Hilir", "tanggal": "2026-08-15", "timestamp": "2026-08-15T13:25:00+07:00", "satelit": "NASA-SNPP", "confidence": "Medium"}}, {"type": "Feature", "geometry": {"type": "Point", "coordinates": [109.34089, 0.02009]}, "properties": {"kab_kota": "KOTA PONTIANAK", "kecamatan": "Pontianak Utara", "desa": "Kelurahan Siantan Hilir", "tanggal": "2026-08-15", "timestamp": "2026-08-15T13:25:00+07:00", "satelit": "NASA-SNPP", "confidence": "Medium"}}, {"type": "Feature", "geometry": {"type": "Point", "coordinates": [109.34891, 0.02779]}, "properties": {"kab_kota": "KOTA PONTIANAK", "kecamatan": "Pontianak Utara", "desa": "Kelurahan Siantan Hulu", "tanggal": "2026-08-08", "timestamp": "2026-08-08T13:57:00+07:00", "satelit": "NASA-SNPP", "confidence": "Medium"}}]}