{"type": "FeatureCollection", "features": [{"type": "Feature", "geometry": {"type": "Point", "coordinates": [108.94608, 0.80924]}, "properties": {"kab_kota": "KOTA SINGKAWANG", "kecamatan": "Singkawang Selatan", "desa": "Kelurahan Pangmilang", "tanggal": "2026-08-29", "timestamp": "2026-08-29T20:18:00+07:00", "satelit": "NASA-MODIS", "confidence": "High"}}, {"type": "Feature", "geometry": {"type": "Point", "coordinates": [108.94774, 0.80766]}, "properties": {"kab_kota": "KOTA SINGKAWANG", "kecamatan": "Singkawang Selatan", "desa": "Kelurahan Pangmilang", "tanggal": "2026-08-30", "timestamp": "2026-08-30T03:19:00+07:00", "satelit": "NASA-MODIS", "confidence": "High"}}, {"type": "Feature", "geometry": {"type": "Point", "coordinates": [109.0517, 0.95079]}, "properties": {"kab_kota": "KOTA SINGKAWANG", "kecamatan": "Singkawang Utara", "desa": "Kelurahan Sungai Rasau", "tanggal": "2026-08-14", "timestamp": "2026-08-14T15:20:00+07:00", "satelit": "NASA-MODIS", "confidence": "High"}}, {"type": "Feature", "geometry": {"type": "Point", "coordinates": [109.04697, 0.95221]}, "properties": {"kab_kota": "KOTA SINGKAWANG", "kecamatan": "Singkawang Utara", "desa": "Kelurahan Sungai Rasau", "tanggal": "2026-08-29", "timestamp": "2026-08-29T20:18:00+07:00", "satelit": "NASA-MODIS", "confidence": "High"}}, {"type": "Feature", "geometry": {"type": "Point", "coordinates": [109.05624, 0.9535]}, "properties": {"kab_kota": "KOTA SINGKAWANG", "kecamatan": "Singkawang Utara", "desa": "Kelurahan Sungai Rasau", "tanggal": "2026-08-29", "timestamp": "2026-08-29T20:18:00+07:00", "satelit": "NASA-MODIS", "confidence": "High"}}, {"type": "Feature", "geometry": {"type": "Point", "coordinates": [109.02715, 0.95866]}, "properties": {"kab_kota": "KOTA SINGKAWANG", "kecamatan": "Singkawang Utara", "desa": "Kelurahan Sungai Rasau", "tanggal": "2026-08-29", "timestamp": "2026-08-29T20:18:00+07:00", "satelit": "NASA-MODIS", "confidence": "High"}}, {"type": "Feature", "geometry": {"type": "Point", "coordinates": [109.05402, 0.94954]}, "properties": {"kab_kota": "KOTA SINGKAWANG", "kecamatan": "Singkawang Utara", "desa": "Kelurahan Sungai Rasau", "tanggal": "2026-08-30", "timestamp": "2026-08-30T03:19:00+07:00", "satelit": "NASA-MODIS", "confidence": "High"}}, {"type": "Feature", "geometry": {"type": "Point", "coordinates": [108.94663, 0.80692]}, "properties": {"kab_kota": "KOTA SINGKAWANG", "kecamatan": "Singkawang Selatan", "desa": "Kelurahan Pangmilang", "tanggal": "2026-08-22", "timestamp": "2026-08-22T03:08:00+07:00", "satelit": "NASA-MODIS", "confidence": "Medium"}}, {"type": "Feature", "geometry": {"type": "Point", "coordinates": [108.94225, 0.79814]}, "properties": {"kab_kota": "KOTA SINGKAWANG", "kecamatan": "Singkawang Selatan", "desa": "Kelurahan Pangmilang", "tanggal": "2026-08-24", "timestamp": "2026-08-24T15:07:00+07:00", "satelit": "NASA-MODIS", "confidence": "Medium"}}, {"type": "Feature", "geometry": {"type": "Point", "coordinates": [108.94225, 0.80054]}, "properties": {"kab_kota": "KOTA SINGKAWANG", "kecamatan": "Singkawang Selatan", "desa": "Kelurahan Pangmilang", "tanggal": "2026-08-24", "timestamp": "2026-08-24T20:18:00+07:00", "satelit": "NASA-MODIS", "confidence": "Medium"}}, {"type": "Feature", "geometry": {"type": "Point", "coordinates": [108.94845, 0.80438]}, "properties": {"kab_kota": "KOTA SINGKAWANG", "kecamatan": "Singkawang Selatan", "desa": "Kelurahan Pangmilang", "tanggal": "2026-08-25", "timestamp": "2026-08-25T08:39:00+07:00", "satelit": "NASA-MODIS", "confidence": "Medium"}}, {"type": "Feature", "geometry": {"type": "Point", "coordinates": [108.94541, 0.80197]}, "properties": {"kab_kota": "KOTA SINGKAWANG", "kecamatan": "Singkawang Selatan", "desa": "Kelurahan Pangmilang", "tanggal": "2026-08-30", "timestamp": "2026-08-30T15:39:00+07:00", "satelit": "NASA-MODIS", "confidence": "Medium"}}, {"type": "Feature", "geometry": {"type": "Point", "coordinates": [109.0331, 0.7989]}, "properties": {"kab_kota": "KOTA SINGKAWANG", "kecamatan": "Singkawang Selatan", "desa": "Kelurahan Sagatani", "tanggal": "2026-08-14", "timestamp": "2026-08-14T15:20:00+07:00", "satelit": "NASA-MODIS", "confidence": "Medium"}}, {"type": "Feature", "geometry": {"type": "Point", "coordinates": [108.93918, 0.80602]}, "properties": {"kab_kota": "KOTA SINGKAWANG", "kecamatan": "Singkawang Selatan", "desa": "Kelurahan Sedau", "tanggal": "2026-08-30", "timestamp": "2026-08-30T15:39:00+07:00", "satelit": "NASA-MODIS", "confidence": "Medium"}}, {"type": "Feature", "geometry": {"type": "Point", "coordinates": [109.0968, 0.97627]}, "properties": {"kab_kota": "KOTA SINGKAWANG", "kecamatan": "Singkawang Timur", "desa": "Kelurahan Maya Sopa", "tanggal": "2026-08-30", "timestamp": "2026-08-30T15:39:00+07:00", "satelit": "NASA-MODIS", "confidence": "Medium"}}, {"type": "Feature", "geometry": {"type": "Point", "coordinates": [109.06039, 0.95207]}, "properties": {"kab_kota": "KOTA SINGKAWANG", "kecamatan": "Singkawang Timur", "desa": "Kelurahan Nyarumkop", "tanggal": "2026-08-14", "timestamp": "2026-08-14T15:20:00+07:00", "satelit": "NASA-MODIS", "confidence": "Medium"}}, {"type": "Feature", "geometry": {"type": "Point", "coordinates": [109.06226, 0.95161]}, "properties": {"kab_kota": "KOTA SINGKAWANG", "kecamatan": "Singkawang Timur", "desa": "Kelurahan Nyarumkop", "tanggal": "2026-08-15", "timestamp": "2026-08-15T03:36:00+07:00", "satelit": "NASA-MODIS", "confidence": "Medium"}}, {"type": "Feature", "geometry": {"type": "Point", "coordinates": [109.06293, 0.94821]}, "properties": {"kab_kota": "KOTA SINGKAWANG", "kecamatan": "Singkawang Timur", "desa": "Kelurahan Nyarumkop", "tanggal": "2026-08-30", "timestamp": "2026-08-30T03:19:00+07:00", "satelit": "NASA-MODIS", "confidence": "Medium"}}, {"type": "Feature", "geometry": {"type": "Point", "coordinates": [109.05965, 0.94895]}, "properties": {"kab_kota": "KOTA SINGKAWANG", "kecamatan": "Singkawang Timur", "desa": "Kelurahan Nyarumkop", "tanggal": "2026-08-30", "timestamp": "2026-08-30T15:39:00+07:00", "satelit": "NASA-MODIS", "confidence": "Medium"}}, {"type": "Feature", "geometry": {"type": "Point", "coordinates": [109.08337, 0.9743]}, "properties": {"kab_kota": "KOTA SINGKAWANG", "kecamatan": "Singkawang Utara", "desa": "Kelurahan Setapuk Besar", "tanggal": "2026-08-30", "timestamp": "2026-08-30T15:39:00+07:00", "satelit": "NASA-MODIS", "confidence": "Medium"}}, {"type": "Feature", "geometry": {"type": "Point", "coordinates": [109.02794, 0.96281]}, "properties": {"kab_kota": "KOTA SINGKAWANG", "kecamatan": "Singkawang Utara", "desa": "Kelurahan Setapuk Kecil", "tanggal": "2026-08-27", "timestamp": "2026-08-27T20:40:00+07:00", "satelit": "NASA-MODIS", "confidence": "Medium"}}, {"type": "Feature", "geometry": {"type": "Point", "coordinates": [109.03749, 0.96107]}, "properties": {"kab_kota": "KOTA SINGKAWANG", "kecamatan": "Singkawang Utara", "desa": "Kelurahan Setapuk Kecil", "tanggal": "2026-08-30", "timestamp": "2026-08-30T03:19:00+07:00", "satelit": "NASA-MODIS", "confidence": "Medium"}}, {"type": "Feature", "geometry": {"type": "Point", "coordinates": [109.02934, 0.95263]}, "properties": {"kab_kota": "KOTA SINGKAWANG", "kecamatan": "Singkawang Utara", "desa": "Kelurahan Sungai Bulan", "tanggal": "2026-08-27", "timestamp": "2026-08-27T20:40:00+07:00", "satelit": "NASA-MODIS", "confidence": "Medium"}}, {"type": "Feature", "geometry": {"type": "Point", "coordinates": [109.06123, 0.94593]}, "properties": {"kab_kota": "KOTA SINGKAWANG", "kecamatan": "Singkawang Utara", "desa": "Kelurahan Sungai Bulan", "tanggal": "2026-08-30", "timestamp": "2026-08-30T08:37:00+07:00", "satelit": "NASA-MODIS", "confidence": "Medium"}}, {"type": "Feature", "geometry": {"type": "Point", "coordinates": [109.05013, 0.94752]}, "properties": {"kab_kota": "KOTA SINGKAWANG", "kecamatan": "Singkawang Utara", "desa": "Kelurahan Sungai Bulan", "tanggal": "2026-08-30", "timestamp": "2026-08-30T08:37:00+07:00", "satelit": "NASA-MODIS", "confidence": "Medium"}}, {"type": "Feature", "geometry": {"type": "Point", "coordinates": [109.04632, 0.94701]}, "properties": {"kab_kota": "KOTA SINGKAWANG", "kecamatan": "Singkawang Utara", "desa": "Kelurahan Sungai Bulan", "tanggal": "2026-08-30", "timestamp": "2026-08-30T15:39:00+07:00", "satelit": "NASA-MODIS", "confidence": "Medium"}}, {"type": "Feature", "geometry": {"type": "Point", "coordinates": [109.05174, 0.94942]}, "properties": {"kab_kota": "KOTA SINGKAWANG", "kecamatan": "Singkawang Utara", "desa": "Kelurahan Sungai Rasau", "tanggal": "2026-08-15", "timestamp": "2026-08-15T08:41:00+07:00", "satelit": "NASA-MODIS", "confidence": "Medium"}}, {"type": "Feature", "geometry": {"type": "Point", "coordinates": [109.03643, 0.95995]}, "properties": {"kab_kota": "KOTA SINGKAWANG", "kecamatan": "Singkawang Utara", "desa": "Kelurahan Sungai Rasau", "tanggal": "2026-08-29", "timestamp": "2026-08-29T20:18:00+07:00", "satelit": "NASA-MODIS", "confidence": "Medium"}}, {"type": "Feature", "geometry": {"type": "Point", "coordinates": [109.02856, 0.96241]}, "properties": {"kab_kota": "KOTA SINGKAWANG", "kecamatan": "Singkawang Utara", "desa": "Kelurahan Sungai Rasau", "tanggal": "2026-08-30", "timestamp": "2026-08-30T03:19:00+07:00", "satelit": "NASA-MODIS", "confidence": "Medium"}}, {"type": "Feature", "geometry": {"type": "Point", "coordinates": [109.03146, 0.95576]}, "properties": {"kab_kota": "KOTA SINGKAWANG", "kecamatan": "Singkawang Utara", "desa": "Kelurahan Sungai Rasau", "tanggal": "2026-08-30", "timestamp": "2026-08-30T15:39:00+07:00", "satelit": "NASA-MODIS", "confidence": "Medium"}}, {"type": "Feature", "geometry": {"type": "Point", "coordinates": [109.09502, 0.97848]}, "properties": {"kab_kota": "KOTA SINGKAWANG", "kecamatan": "Singkawang Timur", "desa": "Kelurahan Maya Sopa", "tanggal": "2026-08-30", "timestamp": "2026-08-30T12:23:00+07:00", "satelit": "NASA-NOAA20", "confidence": "High"}}, {"type": "Feature", "geometry": {"type": "Point", "coordinates": [109.06133, 0.95206]}, "properties": {"kab_kota": "KOTA SINGKAWANG", "kecamatan": "Singkawang Timur", "desa": "Kelurahan Nyarumkop", "tanggal": "2026-08-30", "timestamp": "2026-08-30T12:23:00+07:00", "satelit": "NASA-NOAA20", "confidence": "High"}}, {"type": "Feature", "geometry": {"type": "Point", "coordinates": [109.05618, 0.94423]}, "properties": {"kab_kota": "KOTA SINGKAWANG", "kecamatan": "Singkawang Utara", "desa": "Kelurahan Sungai Bulan", "tanggal": "2026-08-30", "timestamp": "2026-08-30T12:23:00+07:00", "satelit": "NASA-NOAA20", "confidence": "High"}}, {"type": "Feature", "geometry": {"type": "Point", "coordinates": [109.05903, 0.94732]}, "properties": {"kab_kota": "KOTA SINGKAWANG", "kecamatan": "Singkawang Utara", "desa": "Kelurahan Sungai Bulan", "tanggal": "2026-08-30", "timestamp": "2026-08-30T14:01:00+07:00", "satelit": "NASA-NOAA20", "confidence": "Low"}}, {"type": "Feature", "geometry": {"type": "Point", "coordinates": [108.94267, 0.80121]}, "properties": {"kab_kota": "KOTA SINGKAWANG", "kecamatan": "Singkawang Selatan", "desa": "Kelurahan Pangmilang", "tanggal": "2026-08-21", "timestamp": "2026-08-21T00:49:00+07:00", "satelit": "NASA-NOAA20", "confidence": "Medium"}}, {"type": "Feature", "geometry": {"type": "Point", "coordinates": [108.94402, 0.79913]}, "properties": {"kab_kota": "KOTA SINGKAWANG", "kecamatan": "Singkawang Selatan", "desa": "Kelurahan Pangmilang", "tanggal": "2026-08-21", "timestamp": "2026-08-21T13:29:00+07:00", "satelit": "NASA-NOAA20", "confidence": "Medium"}}, {"type": "Feature", "geometry": {"type": "Point", "coordinates": [108.93933, 0.80032]}, "properties": {"kab_kota": "KOTA SINGKAWANG", "kecamatan": "Singkawang Selatan", "desa": "Kelurahan Pangmilang", "tanggal": "2026-08-22", "timestamp": "2026-08-22T00:30:00+07:00", "satelit": "NASA-NOAA20", "confidence": "Medium"}}, {"type": "Feature", "geometry": {"type": "Point", "coordinates": [108.94505, 0.80191]}, "properties": {"kab_kota": "KOTA SINGKAWANG", "kecamatan": "Singkawang Selatan", "desa": "Kelurahan Pangmilang", "tanggal": "2026-08-25", "timestamp": "2026-08-25T01:13:00+07:00", "satelit": "NASA-NOAA20", "confidence": "Medium"}}, {"type": "Feature", "geometry": {"type": "Point", "coordinates": [108.94162, 0.80245]}, "properties": {"kab_kota": "KOTA SINGKAWANG", "kecamatan": "Singkawang Selatan", "desa": "Kelurahan Pangmilang", "tanggal": "2026-08-25", "timestamp": "2026-08-25T01:13:00+07:00", "satelit": "NASA-NOAA20", "confidence": "Medium"}}, {"type": "Feature", "geometry": {"type": "Point", "coordinates": [108.94556, 0.80521]}, "properties": {"kab_kota": "KOTA SINGKAWANG", "kecamatan": "Singkawang Selatan", "desa": "Kelurahan Pangmilang", "tanggal": "2026-08-25", "timestamp": "2026-08-25T01:13:00+07:00", "satelit": "NASA-NOAA20", "confidence": "Medium"}}, {"type": "Feature", "geometry": {"type": "Point", "coordinates": [108.94214, 0.80576]}, "properties": {"kab_kota": "KOTA SINGKAWANG", "kecamatan": "Singkawang Selatan", "desa": "Kelurahan Pangmilang", "tanggal": "2026-08-25", "timestamp": "2026-08-25T01:13:00+07:00", "satelit": "NASA-NOAA20", "confidence": "Medium"}}, {"type": "Feature", "geometry": {"type": "Point", "coordinates": [108.94526, 0.80308]}, "properties": {"kab_kota": "KOTA SINGKAWANG", "kecamatan": "Singkawang Selatan", "desa": "Kelurahan Pangmilang", "tanggal": "2026-08-26", "timestamp": "2026-08-26T13:37:00+07:00", "satelit": "NASA-NOAA20", "confidence": "Medium"}}, {"type": "Feature", "geometry": {"type": "Point", "coordinates": [108.94395, 0.80297]}, "properties": {"kab_kota": "KOTA SINGKAWANG", "kecamatan": "Singkawang Selatan", "desa": "Kelurahan Pangmilang", "tanggal": "2026-08-27", "timestamp": "2026-08-27T13:18:00+07:00", "satelit": "NASA-NOAA20", "confidence": "Medium"}}, {"type": "Feature", "geometry": {"type": "Point", "coordinates": [108.93943, 0.79406]}, "properties": {"kab_kota": "KOTA SINGKAWANG", "kecamatan": "Singkawang Selatan", "desa": "Kelurahan Pangmilang", "tanggal": "2026-08-29", "timestamp": "2026-08-29T01:41:00+07:00", "satelit": "NASA-NOAA20", "confidence": "Medium"}}, {"type": "Feature", "geometry": {"type": "Point", "coordinates": [108.94508, 0.80401]}, "properties": {"kab_kota": "KOTA SINGKAWANG", "kecamatan": "Singkawang Selatan", "desa": "Kelurahan Pangmilang", "tanggal": "2026-08-29", "timestamp": "2026-08-29T12:40:00+07:00", "satelit": "NASA-NOAA20", "confidence": "Medium"}}, {"type": "Feature", "geometry": {"type": "Point", "coordinates": [108.94641, 0.8059]}, "properties": {"kab_kota": "KOTA SINGKAWANG", "kecamatan": "Singkawang Selatan", "desa": "Kelurahan Pangmilang", "tanggal": "2026-08-29", "timestamp": "2026-08-29T12:40:00+07:00", "satelit": "NASA-NOAA20", "confidence": "Medium"}}, {"type": "Feature", "geometry": {"type": "Point", "coordinates": [108.93965, 0.79366]}, "properties": {"kab_kota": "KOTA SINGKAWANG", "kecamatan": "Singkawang Selatan", "desa": "Kelurahan Pangmilang", "tanggal": "2026-08-30", "timestamp": "2026-08-30T01:21:00+07:00", "satelit": "NASA-NOAA20", "confidence": "Medium"}}, {"type": "Feature", "geometry": {"type": "Point", "coordinates": [108.94485, 0.80322]}, "properties": {"kab_kota": "KOTA SINGKAWANG", "kecamatan": "Singkawang Selatan", "desa": "Kelurahan Pangmilang", "tanggal": "2026-08-30", "timestamp": "2026-08-30T01:21:00+07:00", "satelit": "NASA-NOAA20", "confidence": "Medium"}}, {"type": "Feature", "geometry": {"type": "Point", "coordinates": [108.94537, 0.8066]}, "properties": {"kab_kota": "KOTA SINGKAWANG", "kecamatan": "Singkawang Selatan", "desa": "Kelurahan Pangmilang", "tanggal": "2026-08-30", "timestamp": "2026-08-30T01:21:00+07:00", "satelit": "NASA-NOAA20", "confidence": "Medium"}}, {"type": "Feature", "geometry": {"type": "Point", "coordinates": [108.94177, 0.80717]}, "properties": {"kab_kota": "KOTA SINGKAWANG", "kecamatan": "Singkawang Selatan", "desa": "Kelurahan Pangmilang", "tanggal": "2026-08-30", "timestamp": "2026-08-30T01:21:00+07:00", "satelit": "NASA-NOAA20", "confidence": "Medium"}}, {"type": "Feature", "geometry": {"type": "Point", "coordinates": [108.95039, 0.80624]}, "properties": {"kab_kota": "KOTA SINGKAWANG", "kecamatan": "Singkawang Selatan", "desa": "Kelurahan Pangmilang", "tanggal": "2026-08-30", "timestamp": "2026-08-30T12:23:00+07:00", "satelit": "NASA-NOAA20", "confidence": "Medium"}}, {"type": "Feature", "geometry": {"type": "Point", "coordinates": [108.94952, 0.80406]}, "properties": {"kab_kota": "KOTA SINGKAWANG", "kecamatan": "Singkawang Selatan", "desa": "Kelurahan Pangmilang", "tanggal": "2026-08-30", "timestamp": "2026-08-30T14:01:00+07:00", "satelit": "NASA-NOAA20", "confidence": "Medium"}}, {"type": "Feature", "geometry": {"type": "Point", "coordinates": [108.9484, 0.80454]}, "properties": {"kab_kota": "KOTA SINGKAWANG", "kecamatan": "Singkawang Selatan", "desa": "Kelurahan Pangmilang", "tanggal": "2026-08-31", "timestamp": "2026-08-31T01:02:00+07:00", "satelit": "NASA-NOAA20", "confidence": "Medium"}}, {"type": "Feature", "geometry": {"type": "Point", "coordinates": [108.94423, 0.8052]}, "properties": {"kab_kota": "KOTA SINGKAWANG", "kecamatan": "Singkawang Selatan", "desa": "Kelurahan Pangmilang", "tanggal": "2026-08-31", "timestamp": "2026-08-31T01:02:00+07:00", "satelit": "NASA-NOAA20", "confidence": "Medium"}}, {"type": "Feature", "geometry": {"type": "Point", "coordinates": [108.94479, 0.80882]}, "properties": {"kab_kota": "KOTA SINGKAWANG", "kecamatan": "Singkawang Selatan", "desa": "Kelurahan Pangmilang", "tanggal": "2026-08-31", "timestamp": "2026-08-31T01:02:00+07:00", "satelit": "NASA-NOAA20", "confidence": "Medium"}}, {"type": "Feature", "geometry": {"type": "Point", "coordinates": [108.9464, 0.80446]}, "properties": {"kab_kota": "KOTA SINGKAWANG", "kecamatan": "Singkawang Selatan", "desa": "Kelurahan Pangmilang", "tanggal": "2026-08-31", "timestamp": "2026-08-31T13:44:00+07:00", "satelit": "NASA-NOAA20", "confidence": "Medium"}}, {"type": "Feature", "geometry": {"type": "Point", "coordinates": [108.93833, 0.80188]}, "properties": {"kab_kota": "KOTA SINGKAWANG", "kecamatan": "Singkawang Selatan", "desa": "Kelurahan Sedau", "tanggal": "2026-08-21", "timestamp": "2026-08-21T00:49:00+07:00", "satelit": "NASA-NOAA20", "confidence": "Medium"}}, {"type": "Feature", "geometry": {"type": "Point", "coordinates": [108.94031, 0.80642]}, "properties": {"kab_kota": "KOTA SINGKAWANG", "kecamatan": "Singkawang Selatan", "desa": "Kelurahan Sedau", "tanggal": "2026-08-22", "timestamp": "2026-08-22T00:30:00+07:00", "satelit": "NASA-NOAA20", "confidence": "Medium"}}, {"type": "Feature", "geometry": {"type": "Point", "coordinates": [108.94493, 0.814]}, "properties": {"kab_kota": "KOTA SINGKAWANG", "kecamatan": "Singkawang Selatan", "desa": "Kelurahan Sijangkung", "tanggal": "2026-08-31", "timestamp": "2026-08-31T13:44:00+07:00", "satelit": "NASA-NOAA20", "confidence": "Medium"}}, {"type": "Feature", "geometry": {"type": "Point", "coordinates": [109.10211, 0.97466]}, "properties": {"kab_kota": "KOTA SINGKAWANG", "kecamatan": "Singkawang Timur", "desa": "Kelurahan Maya Sopa", "tanggal": "2026-08-24", "timestamp": "2026-08-24T01:34:00+07:00", "satelit": "NASA-NOAA20", "confidence": "Medium"}}, {"type": "Feature", "geometry": {"type": "Point", "coordinates": [109.10192, 0.97427]}, "properties": {"kab_kota": "KOTA SINGKAWANG", "kecamatan": "Singkawang Timur", "desa": "Kelurahan Maya Sopa", "tanggal": "2026-08-25", "timestamp": "2026-08-25T01:13:00+07:00", "satelit": "NASA-NOAA20", "confidence": "Medium"}}, {"type": "Feature", "geometry": {"type": "Point", "coordinates": [109.10244, 0.97757]}, "properties": {"kab_kota": "KOTA SINGKAWANG", "kecamatan": "Singkawang Timur", "desa": "Kelurahan Maya Sopa", "tanggal": "2026-08-25", "timestamp": "2026-08-25T01:13:00+07:00", "satelit": "NASA-NOAA20", "confidence": "Medium"}}, {"type": "Feature", "geometry": {"type": "Point", "coordinates": [109.09904, 0.97639]}, "properties": {"kab_kota": "KOTA SINGKAWANG", "kecamatan": "Singkawang Timur", "desa": "Kelurahan Maya Sopa", "tanggal": "2026-08-26", "timestamp": "2026-08-26T13:37:00+07:00", "satelit": "NASA-NOAA20", "confidence": "Medium"}}, {"type": "Feature", "geometry": {"type": "Point", "coordinates": [109.09858, 0.97635]}, "properties": {"kab_kota": "KOTA SINGKAWANG", "kecamatan": "Singkawang Timur", "desa": "Kelurahan Maya Sopa", "tanggal": "2026-08-27", "timestamp": "2026-08-27T13:18:00+07:00", "satelit": "NASA-NOAA20", "confidence": "Medium"}}, {"type": "Feature", "geometry": {"type": "Point", "coordinates": [109.10213, 0.97689]}, "properties": {"kab_kota": "KOTA SINGKAWANG", "kecamatan": "Singkawang Timur", "desa": "Kelurahan Maya Sopa", "tanggal": "2026-08-27", "timestamp": "2026-08-27T13:18:00+07:00", "satelit": "NASA-NOAA20", "confidence": "Medium"}}, {"type": "Feature", "geometry": {"type": "Point", "coordinates": [109.09808, 0.9797]}, "properties": {"kab_kota": "KOTA SINGKAWANG", "kecamatan": "Singkawang Timur", "desa": "Kelurahan Maya Sopa", "tanggal": "2026-08-27", "timestamp": "2026-08-27T13:18:00+07:00", "satelit": "NASA-NOAA20", "confidence": "Medium"}}, {"type": "Feature", "geometry": {"type": "Point", "coordinates": [109.09447, 0.97972]}, "properties": {"kab_kota": "KOTA SINGKAWANG", "kecamatan": "Singkawang Timur", "desa": "Kelurahan Maya Sopa", "tanggal": "2026-08-28", "timestamp": "2026-08-28T12:59:00+07:00", "satelit": "NASA-NOAA20", "confidence": "Medium"}}, {"type": "Feature", "geometry": {"type": "Point", "coordinates": [109.09739, 0.97917]}, "properties": {"kab_kota": "KOTA SINGKAWANG", "kecamatan": "Singkawang Timur", "desa": "Kelurahan Maya Sopa", "tanggal": "2026-08-30", "timestamp": "2026-08-30T01:19:00+07:00", "satelit": "NASA-NOAA20", "confidence": "Medium"}}, {"type": "Feature", "geometry": {"type": "Point", "coordinates": [109.09377, 0.97974]}, "properties": {"kab_kota": "KOTA SINGKAWANG", "kecamatan": "Singkawang Timur", "desa": "Kelurahan Maya Sopa", "tanggal": "2026-08-30", "timestamp": "2026-08-30T01:19:00+07:00", "satelit": "NASA-NOAA20", "confidence": "Medium"}}, {"type": "Feature", "geometry": {"type": "Point", "coordinates": [109.09389, 0.98527]}, "properties": {"kab_kota": "KOTA SINGKAWANG", "kecamatan": "Singkawang Timur", "desa": "Kelurahan Maya Sopa", "tanggal": "2026-08-30", "timestamp": "2026-08-30T12:23:00+07:00", "satelit": "NASA-NOAA20", "confidence": "Medium"}}, {"type": "Feature", "geometry": {"type": "Point", "coordinates": [109.09531, 0.97626]}, "properties": {"kab_kota": "KOTA SINGKAWANG", "kecamatan": "Singkawang Timur", "desa": "Kelurahan Maya Sopa", "tanggal": "2026-08-31", "timestamp": "2026-08-31T01:02:00+07:00", "satelit": "NASA-NOAA20", "confidence": "Medium"}}, {"type": "Feature", "geometry": {"type": "Point", "coordinates": [109.09586, 0.97986]}, "properties": {"kab_kota": "KOTA SINGKAWANG", "kecamatan": "Singkawang Timur", "desa": "Kelurahan Maya Sopa", "tanggal": "2026-08-31", "timestamp": "2026-08-31T01:02:00+07:00", "satelit": "NASA-NOAA20", "confidence": "Medium"}}, {"type": "Feature", "geometry": {"type": "Point", "coordinates": [109.09174, 0.98051]}, "properties": {"kab_kota": "KOTA SINGKAWANG", "kecamatan": "Singkawang Timur", "desa": "Kelurahan Maya Sopa", "tanggal": "2026-08-31", "timestamp": "2026-08-31T01:02:00+07:00", "satelit": "NASA-NOAA20", "confidence": "Medium"}}, {"type": "Feature", "geometry": {"type": "Point", "coordinates": [109.0572, 0.94902]}, "properties": {"kab_kota": "KOTA SINGKAWANG", "kecamatan": "Singkawang Timur", "desa": "Kelurahan Nyarumkop", "tanggal": "2026-08-31", "timestamp": "2026-08-31T01:02:00+07:00", "satelit": "NASA-NOAA20", "confidence": "Medium"}}, {"type": "Feature", "geometry": {"type": "Point", "coordinates": [109.0309, 0.95141]}, "properties": {"kab_kota": "KOTA SINGKAWANG", "kecamatan": "Singkawang Utara", "desa": "Kelurahan Sungai Bulan", "tanggal": "2026-08-23", "timestamp": "2026-08-23T01:51:00+07:00", "satelit": "NASA-NOAA20", "confidence": "Medium"}}, {"type": "Feature", "geometry": {"type": "Point", "coordinates": [109.02735, 0.95197]}, "properties": {"kab_kota": "KOTA SINGKAWANG", "kecamatan": "Singkawang Utara", "desa": "Kelurahan Sungai Bulan", "tanggal": "2026-08-23", "timestamp": "2026-08-23T01:51:00+07:00", "satelit": "NASA-NOAA20", "confidence": "Medium"}}, {"type": "Feature", "geometry": {"type": "Point", "coordinates": [109.03162, 0.9521]}, "properties": {"kab_kota": "KOTA SINGKAWANG", "kecamatan": "Singkawang Utara", "desa": "Kelurahan Sungai Bulan", "tanggal": "2026-08-23", "timestamp": "2026-08-23T01:51:00+07:00", "satelit": "NASA-NOAA20", "confidence": "Medium"}}, {"type": "Feature", "geometry": {"type": "Point", "coordinates": [109.02811, 0.95268]}, "properties": {"kab_kota": "KOTA SINGKAWANG", "kecamatan": "Singkawang Utara", "desa": "Kelurahan Sungai Bulan", "tanggal": "2026-08-23", "timestamp": "2026-08-23T01:51:00+07:00", "satelit": "NASA-NOAA20", "confidence": "Medium"}}, {"type": "Feature", "geometry": {"type": "Point", "coordinates": [109.03274, 0.94928]}, "properties": {"kab_kota": "KOTA SINGKAWANG", "kecamatan": "Singkawang Utara", "desa": "Kelurahan Sungai Bulan", "tanggal": "2026-08-24", "timestamp": "2026-08-24T01:34:00+07:00", "satelit": "NASA-NOAA20", "confidence": "Medium"}}, {"type": "Feature", "geometry": {"type": "Point", "coordinates": [109.0311, 0.9509]}, "properties": {"kab_kota": "KOTA SINGKAWANG", "kecamatan": "Singkawang Utara", "desa": "Kelurahan Sungai Bulan", "tanggal": "2026-08-24", "timestamp": "2026-08-24T01:34:00+07:00", "satelit": "NASA-NOAA20", "confidence": "Medium"}}, {"type": "Feature", "geometry": {"type": "Point", "coordinates": [109.03166, 0.95101]}, "properties": {"kab_kota": "KOTA SINGKAWANG", "kecamatan": "Singkawang Utara", "desa": "Kelurahan Sungai Bulan", "tanggal": "2026-08-25", "timestamp": "2026-08-25T01:13:00+07:00", "satelit": "NASA-NOAA20", "confidence": "Medium"}}, {"type": "Feature", "geometry": {"type": "Point", "coordinates": [109.02824, 0.95155]}, "properties": {"kab_kota": "KOTA SINGKAWANG", "kecamatan": "Singkawang Utara", "desa": "Kelurahan Sungai Bulan", "tanggal": "2026-08-25", "timestamp": "2026-08-25T01:13:00+07:00", "satelit": "NASA-NOAA20", "confidence": "Medium"}}, {"type": "Feature", "geometry": {"type": "Point", "coordinates": [109.02964, 0.95209]}, "properties": {"kab_kota": "KOTA SINGKAWANG", "kecamatan": "Singkawang Utara", "desa": "Kelurahan Sungai Bulan", "tanggal": "2026-08-27", "timestamp": "2026-08-27T13:18:00+07:00", "satelit": "NASA-NOAA20", "confidence": "Medium"}}, {"type": "Feature", "geometry": {"type": "Point", "coordinates": [109.0354, 0.95232]}, "properties": {"kab_kota": "KOTA SINGKAWANG", "kecamatan": "Singkawang Utara", "desa": "Kelurahan Sungai Bulan", "tanggal": "2026-08-29", "timestamp": "2026-08-29T12:40:00+07:00", "satelit": "NASA-NOAA20", "confidence": "Medium"}}, {"type": "Feature", "geometry": {"type": "Point", "coordinates": [109.05536, 0.94766]}, "properties": {"kab_kota": "KOTA SINGKAWANG", "kecamatan": "Singkawang Utara", "desa": "Kelurahan Sungai Bulan", "tanggal": "2026-08-30", "timestamp": "2026-08-30T01:21:00+07:00", "satelit": "NASA-NOAA20", "confidence": "Medium"}}, {"type": "Feature", "geometry": {"type": "Point", "coordinates": [109.05175, 0.94824]}, "properties": {"kab_kota": "KOTA SINGKAWANG", "kecamatan": "Singkawang Utara", "desa": "Kelurahan Sungai Bulan", "tanggal": "2026-08-30", "timestamp": "2026-08-30T01:21:00+07:00", "satelit": "NASA-NOAA20", "confidence": "Medium"}}, {"type": "Feature", "geometry": {"type": "Point", "coordinates": [109.05342, 0.94645]}, "properties": {"kab_kota": "KOTA SINGKAWANG", "kecamatan": "Singkawang Utara", "desa": "Kelurahan Sungai Bulan", "tanggal": "2026-08-30", "timestamp": "2026-08-30T14:01:00+07:00", "satelit": "NASA-NOAA20", "confidence": "Medium"}}, {"type": "Feature", "geometry": {"type": "Point", "coordinates": [109.02885, 0.95559]}, "properties": {"kab_kota": "KOTA SINGKAWANG", "kecamatan": "Singkawang Utara", "desa": "Kelurahan Sungai Rasau", "tanggal": "2026-08-22", "timestamp": "2026-08-22T00:30:00+07:00", "satelit": "NASA-NOAA20", "confidence": "Medium"}}, {"type": "Feature", "geometry": {"type": "Point", "coordinates": [109.03082, 0.95604]}, "properties": {"kab_kota": "KOTA SINGKAWANG", "kecamatan": "Singkawang Utara", "desa": "Kelurahan Sungai Rasau", "tanggal": "2026-08-22", "timestamp": "2026-08-22T00:30:00+07:00", "satelit": "NASA-NOAA20", "confidence": "Medium"}}, {"type": "Feature", "geometry": {"type": "Point", "coordinates": [109.03337, 0.95324]}, "properties": {"kab_kota": "KOTA SINGKAWANG", "kecamatan": "Singkawang Utara", "desa": "Kelurahan Sungai Rasau", "tanggal": "2026-08-24", "timestamp": "2026-08-24T01:34:00+07:00", "satelit": "NASA-NOAA20", "confidence": "Medium"}}, {"type": "Feature", "geometry": {"type": "Point", "coordinates": [109.03681, 0.95406]}, "properties": {"kab_kota": "KOTA SINGKAWANG", "kecamatan": "Singkawang Utara", "desa": "Kelurahan Sungai Rasau", "tanggal": "2026-08-24", "timestamp": "2026-08-24T01:34:00+07:00", "satelit": "NASA-NOAA20", "confidence": "Medium"}}, {"type": "Feature", "geometry": {"type": "Point", "coordinates": [109.02831, 0.95407]}, "properties": {"kab_kota": "KOTA SINGKAWANG", "kecamatan": "Singkawang Utara", "desa": "Kelurahan Sungai Rasau", "tanggal": "2026-08-24", "timestamp": "2026-08-24T01:34:00+07:00", "satelit": "NASA-NOAA20", "confidence": "Medium"}}, {"type": "Feature", "geometry": {"type": "Point", "coordinates": [109.03174, 0.95486]}, "properties": {"kab_kota": "KOTA SINGKAWANG", "kecamatan": "Singkawang Utara", "desa": "Kelurahan Sungai Rasau", "tanggal": "2026-08-24", "timestamp": "2026-08-24T01:34:00+07:00", "satelit": "NASA-NOAA20", "confidence": "Medium"}}, {"type": "Feature", "geometry": {"type": "Point", "coordinates": [109.03561, 0.95377]}, "properties": {"kab_kota": "KOTA SINGKAWANG", "kecamatan": "Singkawang Utara", "desa": "Kelurahan Sungai Rasau", "tanggal": "2026-08-25", "timestamp": "2026-08-25T01:13:00+07:00", "satelit": "NASA-NOAA20", "confidence": "Medium"}}, {"type": "Feature", "geometry": {"type": "Point", "coordinates": [109.03217, 0.95432]}, "properties": {"kab_kota": "KOTA SINGKAWANG", "kecamatan": "Singkawang Utara", "desa": "Kelurahan Sungai Rasau", "tanggal": "2026-08-25", "timestamp": "2026-08-25T01:13:00+07:00", "satelit": "NASA-NOAA20", "confidence": "Medium"}}, {"type": "Feature", "geometry": {"type": "Point", "coordinates": [109.03298, 0.95932]}, "properties": {"kab_kota": "KOTA SINGKAWANG", "kecamatan": "Singkawang Utara", "desa": "Kelurahan Sungai Rasau", "tanggal": "2026-08-29", "timestamp": "2026-08-29T01:41:00+07:00", "satelit": "NASA-NOAA20", "confidence": "Medium"}}, {"type": "Feature", "geometry": {"type": "Point", "coordinates": [109.03461, 0.95735]}, "properties": {"kab_kota": "KOTA SINGKAWANG", "kecamatan": "Singkawang Utara", "desa": "Kelurahan Sungai Rasau", "tanggal": "2026-08-29", "timestamp": "2026-08-29T12:40:00+07:00", "satelit": "NASA-NOAA20", "confidence": "Medium"}}, {"type": "Feature", "geometry": {"type": "Point", "coordinates": [109.05589, 0.95105]}, "properties": {"kab_kota": "KOTA SINGKAWANG", "kecamatan": "Singkawang Utara", "desa": "Kelurahan Sungai Rasau", "tanggal": "2026-08-30", "timestamp": "2026-08-30T01:19:00+07:00", "satelit": "NASA-NOAA20", "confidence": "Medium"}}, {"type": "Feature", "geometry": {"type": "Point", "coordinates": [109.05228, 0.95163]}, "properties": {"kab_kota": "KOTA SINGKAWANG", "kecamatan": "Singkawang Utara", "desa": "Kelurahan Sungai Rasau", "tanggal": "2026-08-30", "timestamp": "2026-08-30T01:19:00+07:00", "satelit": "NASA-NOAA20", "confidence": "Medium"}}, {"type": "Feature", "geometry": {"type": "Point", "coordinates": [109.03423, 0.9545]}, "properties": {"kab_kota": "KOTA SINGKAWANG", "kecamatan": "Singkawang Utara", "desa": "Kelurahan Sungai Rasau", "tanggal": "2026-08-30", "timestamp": "2026-08-30T01:19:00+07:00", "satelit": "NASA-NOAA20", "confidence": "Medium"}}, {"type": "Feature", "geometry": {"type": "Point", "coordinates": [109.03062, 0.95508]}, "properties": {"kab_kota": "KOTA SINGKAWANG", "kecamatan": "Singkawang Utara", "desa": "Kelurahan Sungai Rasau", "tanggal": "2026-08-30", "timestamp": "2026-08-30T01:19:00+07:00", "satelit": "NASA-NOAA20", "confidence": "Medium"}}, {"type": "Feature", "geometry": {"type": "Point", "coordinates": [109.02702, 0.95565]}, "properties": {"kab_kota": "KOTA SINGKAWANG", "kecamatan": "Singkawang Utara", "desa": "Kelurahan Sungai Rasau", "tanggal": "2026-08-30", "timestamp": "2026-08-30T01:19:00+07:00", "satelit": "NASA-NOAA20", "confidence": "Medium"}}, {"type": "Feature", "geometry": {"type": "Point", "coordinates": [109.03476, 0.95789]}, "properties": {"kab_kota": "KOTA SINGKAWANG", "kecamatan": "Singkawang Utara", "desa": "Kelurahan Sungai Rasau", "tanggal": "2026-08-30", "timestamp": "2026-08-30T01:19:00+07:00", "satelit": "NASA-NOAA20", "confidence": "Medium"}}, {"type": "Feature", "geometry": {"type": "Point", "coordinates": [109.03115, 0.95846]}, "properties": {"kab_kota": "KOTA SINGKAWANG", "kecamatan": "Singkawang Utara", "desa": "Kelurahan Sungai Rasau", "tanggal": "2026-08-30", "timestamp": "2026-08-30T01:19:00+07:00", "satelit": "NASA-NOAA20", "confidence": "Medium"}}, {"type": "Feature", "geometry": {"type": "Point", "coordinates": [109.02755, 0.95904]}, "properties": {"kab_kota": "KOTA SINGKAWANG", "kecamatan": "Singkawang Utara", "desa": "Kelurahan Sungai Rasau", "tanggal": "2026-08-30", "timestamp": "2026-08-30T01:19:00+07:00", "satelit": "NASA-NOAA20", "confidence": "Medium"}}, {"type": "Feature", "geometry": {"type": "Point", "coordinates": [109.05508, 0.95104]}, "properties": {"kab_kota": "KOTA SINGKAWANG", "kecamatan": "Singkawang Utara", "desa": "Kelurahan Sungai Rasau", "tanggal": "2026-08-30", "timestamp": "2026-08-30T12:23:00+07:00", "satelit": "NASA-NOAA20", "confidence": "Medium"}}, {"type": "Feature", "geometry": {"type": "Point", "coordinates": [109.03485, 0.95701]}, "properties": {"kab_kota": "KOTA SINGKAWANG", "kecamatan": "Singkawang Utara", "desa": "Kelurahan Sungai Rasau", "tanggal": "2026-08-30", "timestamp": "2026-08-30T14:01:00+07:00", "satelit": "NASA-NOAA20", "confidence": "Medium"}}, {"type": "Feature", "geometry": {"type": "Point", "coordinates": [109.05305, 0.94967]}, "properties": {"kab_kota": "KOTA SINGKAWANG", "kecamatan": "Singkawang Utara", "desa": "Kelurahan Sungai Rasau", "tanggal": "2026-08-31", "timestamp": "2026-08-31T01:02:00+07:00", "satelit": "NASA-NOAA20", "confidence": "Medium"}}, {"type": "Feature", "geometry": {"type": "Point", "coordinates": [109.03703, 0.95586]}, "properties": {"kab_kota": "KOTA SINGKAWANG", "kecamatan": "Singkawang Utara", "desa": "Kelurahan Sungai Rasau", "tanggal": "2026-08-31", "timestamp": "2026-08-31T01:02:00+07:00", "satelit": "NASA-NOAA20", "confidence": "Medium"}}, {"type": "Feature", "geometry": {"type": "Point", "coordinates": [109.03287, 0.95651]}, "properties": {"kab_kota": "KOTA SINGKAWANG", "kecamatan": "Singkawang Utara", "desa": "Kelurahan Sungai Rasau", "tanggal": "2026-08-31", "timestamp": "2026-08-31T01:02:00+07:00", "satelit": "NASA-NOAA20", "confidence": "Medium"}}, {"type": "Feature", "geometry": {"type": "Point", "coordinates": [109.02872, 0.95716]}, "properties": {"kab_kota": "KOTA SINGKAWANG", "kecamatan": "Singkawang Utara", "desa": "Kelurahan Sungai Rasau", "tanggal": "2026-08-31", "timestamp": "2026-08-31T01:02:00+07:00", "satelit": "NASA-NOAA20", "confidence": "Medium"}}, {"type": "Feature", "geometry": {"type": "Point", "coordinates": [109.0376, 0.95947]}, "properties": {"kab_kota": "KOTA SINGKAWANG", "kecamatan": "Singkawang Utara", "desa": "Kelurahan Sungai Rasau", "tanggal": "2026-08-31", "timestamp": "2026-08-31T01:02:00+07:00", "satelit": "NASA-NOAA20", "confidence": "Medium"}}, {"type": "Feature", "geometry": {"type": "Point", "coordinates": [109.02928, 0.96077]}, "properties": {"kab_kota": "KOTA SINGKAWANG", "kecamatan": "Singkawang Utara", "desa": "Kelurahan Sungai Rasau", "tanggal": "2026-08-31", "timestamp": "2026-08-31T01:02:00+07:00", "satelit": "NASA-NOAA20", "confidence": "Medium"}}, {"type": "Feature", "geometry": {"type": "Point", "coordinates": [109.03729, 0.95559]}, "properties": {"kab_kota": "KOTA SINGKAWANG", "kecamatan": "Singkawang Utara", "desa": "Kelurahan Sungai Rasau", "tanggal": "2026-08-31", "timestamp": "2026-08-31T13:44:00+07:00", "satelit": "NASA-NOAA20", "confidence": "Medium"}}, {"type": "Feature", "geometry": {"type": "Point", "coordinates": [109.03138, 0.95961]}, "properties": {"kab_kota": "KOTA SINGKAWANG", "kecamatan": "Singkawang Utara", "desa": "Kelurahan Sungai Rasau", "tanggal": "2026-08-31", "timestamp": "2026-08-31T13:44:00+07:00", "satelit": "NASA-NOAA20", "confidence": "Medium"}}, {"type": "Feature", "geometry": {"type": "Point", "coordinates": [108.98317, 0.77135]}, "properties": {"kab_kota": "KOTA SINGKAWANG", "kecamatan": "Singkawang Selatan", "desa": "Kelurahan Pangmilang", "tanggal": "2026-08-08", "timestamp": "2026-08-08T13:57:00+07:00", "satelit": "NASA-SNPP", "confidence": "High"}}, {"type": "Feature", "geometry": {"type": "Point", "coordinates": [108.94608, 0.80273]}, "properties": {"kab_kota": "KOTA SINGKAWANG", "kecamatan": "Singkawang Selatan", "desa": "Kelurahan Pangmilang", "tanggal": "2026-08-31", "timestamp": "2026-08-31T13:22:00+07:00", "satelit": "NASA-SNPP", "confidence": "Low"}}, {"type": "Feature", "geometry": {"type": "Point", "coordinates": [109.03553, 0.9517]}, "properties": {"kab_kota": "KOTA SINGKAWANG", "kecamatan": "Singkawang Utara", "desa": "Kelurahan Sungai Bulan", "tanggal": "2026-08-31", "timestamp": "2026-08-31T13:22:00+07:00", "satelit": "NASA-SNPP", "confidence": "Low"}}, {"type": "Feature", "geometry": {"type": "Point", "coordinates": [109.03503, 0.95506]}, "properties": {"kab_kota": "KOTA SINGKAWANG", "kecamatan": "Singkawang Utara", "desa": "Kelurahan Sungai Rasau", "tanggal": "2026-08-31", "timestamp": "2026-08-31T13:22:00+07:00", "satelit": "NASA-SNPP", "confidence": "Low"}}, {"type": "Feature", "geometry": {"type": "Point", "coordinates": [108.98122, 0.77325]}, "properties": {"kab_kota": "KOTA SINGKAWANG", "kecamatan": "Singkawang Selatan", "desa": "Kelurahan Pangmilang", "tanggal": "2026-08-08", "timestamp": "2026-08-08T13:57:00+07:00", "satelit": "NASA-SNPP", "confidence": "Medium"}}, {"type": "Feature", "geometry": {"type": "Point", "coordinates": [108.98449, 0.77377]}, "properties": {"kab_kota": "KOTA SINGKAWANG", "kecamatan": "Singkawang Selatan", "desa": "Kelurahan Pangmilang", "tanggal": "2026-08-08", "timestamp": "2026-08-08T13:57:00+07:00", "satelit": "NASA-SNPP", "confidence": "Medium"}}, {"type": "Feature", "geometry": {"type": "Point", "coordinates": [108.94171, 0.80031]}, "properties": {"kab_kota": "KOTA SINGKAWANG", "kecamatan": "Singkawang Selatan", "desa": "Kelurahan Pangmilang", "tanggal": "2026-08-20", "timestamp": "2026-08-20T13:29:00+07:00", "satelit": "NASA-SNPP", "confidence": "Medium"}}, {"type": "Feature", "geometry": {"type": "Point", "coordinates": [108.94114, 0.80251]}, "properties": {"kab_kota": "KOTA SINGKAWANG", "kecamatan": "Singkawang Selatan", "desa": "Kelurahan Pangmilang", "tanggal": "2026-08-21", "timestamp": "2026-08-21T00:30:00+07:00", "satelit": "NASA-SNPP", "confidence": "Medium"}}, {"type": "Feature", "geometry": {"type": "Point", "coordinates": [108.94067, 0.8038]}, "properties": {"kab_kota": "KOTA SINGKAWANG", "kecamatan": "Singkawang Selatan", "desa": "Kelurahan Pangmilang", "tanggal": "2026-08-21", "timestamp": "2026-08-21T00:30:00+07:00", "satelit": "NASA-SNPP", "confidence": "Medium"}}, {"type": "Feature", "geometry": {"type": "Point", "coordinates": [108.94048, 0.80237]}, "properties": {"kab_kota": "KOTA SINGKAWANG", "kecamatan": "Singkawang Selatan", "desa": "Kelurahan Pangmilang", "tanggal": "2026-08-22", "timestamp": "2026-08-22T01:51:00+07:00", "satelit": "NASA-SNPP", "confidence": "Medium"}}, {"type": "Feature", "geometry": {"type": "Point", "coordinates": [108.94278, 0.80019]}, "properties": {"kab_kota": "KOTA SINGKAWANG", "kecamatan": "Singkawang Selatan", "desa": "Kelurahan Pangmilang", "tanggal": "2026-08-22", "timestamp": "2026-08-22T12:53:00+07:00", "satelit": "NASA-SNPP", "confidence": "Medium"}}, {"type": "Feature", "geometry": {"type": "Point", "coordinates": [108.94108, 0.80121]}, "properties": {"kab_kota": "KOTA SINGKAWANG", "kecamatan": "Singkawang Selatan", "desa": "Kelurahan Pangmilang", "tanggal": "2026-08-22", "timestamp": "2026-08-22T12:53:00+07:00", "satelit": "NASA-SNPP", "confidence": "Medium"}}, {"type": "Feature", "geometry": {"type": "Point", "coordinates": [108.94157, 0.8007]}, "properties": {"kab_kota": "KOTA SINGKAWANG", "kecamatan": "Singkawang Selatan", "desa": "Kelurahan Pangmilang", "tanggal": "2026-08-23", "timestamp": "2026-08-23T01:34:00+07:00", "satelit": "NASA-SNPP", "confidence": "Medium"}}, {"type": "Feature", "geometry": {"type": "Point", "coordinates": [108.94564, 0.79974]}, "properties": {"kab_kota": "KOTA SINGKAWANG", "kecamatan": "Singkawang Selatan", "desa": "Kelurahan Pangmilang", "tanggal": "2026-08-25", "timestamp": "2026-08-25T00:56:00+07:00", "satelit": "NASA-SNPP", "confidence": "Medium"}}, {"type": "Feature", "geometry": {"type": "Point", "coordinates": [108.94125, 0.80045]}, "properties": {"kab_kota": "KOTA SINGKAWANG", "kecamatan": "Singkawang Selatan", "desa": "Kelurahan Pangmilang", "tanggal": "2026-08-25", "timestamp": "2026-08-25T00:56:00+07:00", "satelit": "NASA-SNPP", "confidence": "Medium"}}, {"type": "Feature", "geometry": {"type": "Point", "coordinates": [108.94361, 0.80222]}, "properties": {"kab_kota": "KOTA SINGKAWANG", "kecamatan": "Singkawang Selatan", "desa": "Kelurahan Pangmilang", "tanggal": "2026-08-25", "timestamp": "2026-08-25T00:56:00+07:00", "satelit": "NASA-SNPP", "confidence": "Medium"}}, {"type": "Feature", "geometry": {"type": "Point", "coordinates": [108.94633, 0.80421]}, "properties": {"kab_kota": "KOTA SINGKAWANG", "kecamatan": "Singkawang Selatan", "desa": "Kelurahan Pangmilang", "tanggal": "2026-08-25", "timestamp": "2026-08-25T00:56:00+07:00", "satelit": "NASA-SNPP", "confidence": "Medium"}}, {"type": "Feature", "geometry": {"type": "Point", "coordinates": [108.94194, 0.80492]}, "properties": {"kab_kota": "KOTA SINGKAWANG", "kecamatan": "Singkawang Selatan", "desa": "Kelurahan Pangmilang", "tanggal": "2026-08-25", "timestamp": "2026-08-25T00:56:00+07:00", "satelit": "NASA-SNPP", "confidence": "Medium"}}, {"type": "Feature", "geometry": {"type": "Point", "coordinates": [108.94213, 0.80263]}, "properties": {"kab_kota": "KOTA SINGKAWANG", "kecamatan": "Singkawang Selatan", "desa": "Kelurahan Pangmilang", "tanggal": "2026-08-25", "timestamp": "2026-08-25T13:35:00+07:00", "satelit": "NASA-SNPP", "confidence": "Medium"}}, {"type": "Feature", "geometry": {"type": "Point", "coordinates": [108.94687, 0.80335]}, "properties": {"kab_kota": "KOTA SINGKAWANG", "kecamatan": "Singkawang Selatan", "desa": "Kelurahan Pangmilang", "tanggal": "2026-08-25", "timestamp": "2026-08-25T13:35:00+07:00", "satelit": "NASA-SNPP", "confidence": "Medium"}}, {"type": "Feature", "geometry": {"type": "Point", "coordinates": [108.94518, 0.80066]}, "properties": {"kab_kota": "KOTA SINGKAWANG", "kecamatan": "Singkawang Selatan", "desa": "Kelurahan Pangmilang", "tanggal": "2026-08-26", "timestamp": "2026-08-26T00:37:00+07:00", "satelit": "NASA-SNPP", "confidence": "Medium"}}, {"type": "Feature", "geometry": {"type": "Point", "coordinates": [108.9421, 0.79197]}, "properties": {"kab_kota": "KOTA SINGKAWANG", "kecamatan": "Singkawang Selatan", "desa": "Kelurahan Pangmilang", "tanggal": "2026-08-28", "timestamp": "2026-08-28T12:40:00+07:00", "satelit": "NASA-SNPP", "confidence": "Medium"}}, {"type": "Feature", "geometry": {"type": "Point", "coordinates": [108.93765, 0.79634]}, "properties": {"kab_kota": "KOTA SINGKAWANG", "kecamatan": "Singkawang Selatan", "desa": "Kelurahan Pangmilang", "tanggal": "2026-08-28", "timestamp": "2026-08-28T12:40:00+07:00", "satelit": "NASA-SNPP", "confidence": "Medium"}}, {"type": "Feature", "geometry": {"type": "Point", "coordinates": [108.94116, 0.79295]}, "properties": {"kab_kota": "KOTA SINGKAWANG", "kecamatan": "Singkawang Selatan", "desa": "Kelurahan Pangmilang", "tanggal": "2026-08-29", "timestamp": "2026-08-29T01:19:00+07:00", "satelit": "NASA-SNPP", "confidence": "Medium"}}, {"type": "Feature", "geometry": {"type": "Point", "coordinates": [108.93772, 0.7935]}, "properties": {"kab_kota": "KOTA SINGKAWANG", "kecamatan": "Singkawang Selatan", "desa": "Kelurahan Pangmilang", "tanggal": "2026-08-29", "timestamp": "2026-08-29T01:19:00+07:00", "satelit": "NASA-SNPP", "confidence": "Medium"}}, {"type": "Feature", "geometry": {"type": "Point", "coordinates": [108.9436, 0.80551]}, "properties": {"kab_kota": "KOTA SINGKAWANG", "kecamatan": "Singkawang Selatan", "desa": "Kelurahan Pangmilang", "tanggal": "2026-08-29", "timestamp": "2026-08-29T01:19:00+07:00", "satelit": "NASA-SNPP", "confidence": "Medium"}}, {"type": "Feature", "geometry": {"type": "Point", "coordinates": [108.94325, 0.80709]}, "properties": {"kab_kota": "KOTA SINGKAWANG", "kecamatan": "Singkawang Selatan", "desa": "Kelurahan Pangmilang", "tanggal": "2026-08-29", "timestamp": "2026-08-29T14:01:00+07:00", "satelit": "NASA-SNPP", "confidence": "Medium"}}, {"type": "Feature", "geometry": {"type": "Point", "coordinates": [108.94746, 0.80774]}, "properties": {"kab_kota": "KOTA SINGKAWANG", "kecamatan": "Singkawang Selatan", "desa": "Kelurahan Pangmilang", "tanggal": "2026-08-29", "timestamp": "2026-08-29T14:01:00+07:00", "satelit": "NASA-SNPP", "confidence": "Medium"}}, {"type": "Feature", "geometry": {"type": "Point", "coordinates": [108.94051, 0.79105]}, "properties": {"kab_kota": "KOTA SINGKAWANG", "kecamatan": "Singkawang Selatan", "desa": "Kelurahan Pangmilang", "tanggal": "2026-08-30", "timestamp": "2026-08-30T01:02:00+07:00", "satelit": "NASA-SNPP", "confidence": "Medium"}}, {"type": "Feature", "geometry": {"type": "Point", "coordinates": [108.94608, 0.80366]}, "properties": {"kab_kota": "KOTA SINGKAWANG", "kecamatan": "Singkawang Selatan", "desa": "Kelurahan Pangmilang", "tanggal": "2026-08-30", "timestamp": "2026-08-30T01:02:00+07:00", "satelit": "NASA-SNPP", "confidence": "Medium"}}, {"type": "Feature", "geometry": {"type": "Point", "coordinates": [108.94259, 0.80419]}, "properties": {"kab_kota": "KOTA SINGKAWANG", "kecamatan": "Singkawang Selatan", "desa": "Kelurahan Pangmilang", "tanggal": "2026-08-30", "timestamp": "2026-08-30T01:02:00+07:00", "satelit": "NASA-SNPP", "confidence": "Medium"}}, {"type": "Feature", "geometry": {"type": "Point", "coordinates": [108.9467, 0.80768]}, "properties": {"kab_kota": "KOTA SINGKAWANG", "kecamatan": "Singkawang Selatan", "desa": "Kelurahan Pangmilang", "tanggal": "2026-08-30", "timestamp": "2026-08-30T01:02:00+07:00", "satelit": "NASA-SNPP", "confidence": "Medium"}}, {"type": "Feature", "geometry": {"type": "Point", "coordinates": [108.94322, 0.80821]}, "properties": {"kab_kota": "KOTA SINGKAWANG", "kecamatan": "Singkawang Selatan", "desa": "Kelurahan Pangmilang", "tanggal": "2026-08-30", "timestamp": "2026-08-30T01:02:00+07:00", "satelit": "NASA-SNPP", "confidence": "Medium"}}, {"type": "Feature", "geometry": {"type": "Point", "coordinates": [108.94576, 0.80349]}, "properties": {"kab_kota": "KOTA SINGKAWANG", "kecamatan": "Singkawang Selatan", "desa": "Kelurahan Pangmilang", "tanggal": "2026-08-30", "timestamp": "2026-08-30T13:44:00+07:00", "satelit": "NASA-SNPP", "confidence": "Medium"}}, {"type": "Feature", "geometry": {"type": "Point", "coordinates": [108.94512, 0.80776]}, "properties": {"kab_kota": "KOTA SINGKAWANG", "kecamatan": "Singkawang Selatan", "desa": "Kelurahan Pangmilang", "tanggal": "2026-08-30", "timestamp": "2026-08-30T13:44:00+07:00", "satelit": "NASA-SNPP", "confidence": "Medium"}}, {"type": "Feature", "geometry": {"type": "Point", "coordinates": [108.94498, 0.80171]}, "properties": {"kab_kota": "KOTA SINGKAWANG", "kecamatan": "Singkawang Selatan", "desa": "Kelurahan Pangmilang", "tanggal": "2026-08-31", "timestamp": "2026-08-31T00:43:00+07:00", "satelit": "NASA-SNPP", "confidence": "Medium"}}, {"type": "Feature", "geometry": {"type": "Point", "coordinates": [108.94843, 0.80523]}, "properties": {"kab_kota": "KOTA SINGKAWANG", "kecamatan": "Singkawang Selatan", "desa": "Kelurahan Pangmilang", "tanggal": "2026-08-31", "timestamp": "2026-08-31T00:43:00+07:00", "satelit": "NASA-SNPP", "confidence": "Medium"}}, {"type": "Feature", "geometry": {"type": "Point", "coordinates": [108.94477, 0.80579]}, "properties": {"kab_kota": "KOTA SINGKAWANG", "kecamatan": "Singkawang Selatan", "desa": "Kelurahan Pangmilang", "tanggal": "2026-08-31", "timestamp": "2026-08-31T00:43:00+07:00", "satelit": "NASA-SNPP", "confidence": "Medium"}}, {"type": "Feature", "geometry": {"type": "Point", "coordinates": [108.94585, 0.80727]}, "properties": {"kab_kota": "KOTA SINGKAWANG", "kecamatan": "Singkawang Selatan", "desa": "Kelurahan Pangmilang", "tanggal": "2026-08-31", "timestamp": "2026-08-31T00:43:00+07:00", "satelit": "NASA-SNPP", "confidence": "Medium"}}, {"type": "Feature", "geometry": {"type": "Point", "coordinates": [108.9435, 0.80043]}, "properties": {"kab_kota": "KOTA SINGKAWANG", "kecamatan": "Singkawang Selatan", "desa": "Kelurahan Pangmilang", "tanggal": "2026-08-31", "timestamp": "2026-08-31T13:22:00+07:00", "satelit": "NASA-SNPP", "confidence": "Medium"}}, {"type": "Feature", "geometry": {"type": "Point", "coordinates": [108.94557, 0.80609]}, "properties": {"kab_kota": "KOTA SINGKAWANG", "kecamatan": "Singkawang Selatan", "desa": "Kelurahan Pangmilang", "tanggal": "2026-08-31", "timestamp": "2026-08-31T13:22:00+07:00", "satelit": "NASA-SNPP", "confidence": "Medium"}}, {"type": "Feature", "geometry": {"type": "Point", "coordinates": [109.10415, 0.9747]}, "properties": {"kab_kota": "KOTA SINGKAWANG", "kecamatan": "Singkawang Timur", "desa": "Kelurahan Maya Sopa", "tanggal": "2026-08-24", "timestamp": "2026-08-24T01:13:00+07:00", "satelit": "NASA-SNPP", "confidence": "Medium"}}, {"type": "Feature", "geometry": {"type": "Point", "coordinates": [109.10052, 0.97527]}, "properties": {"kab_kota": "KOTA SINGKAWANG", "kecamatan": "Singkawang Timur", "desa": "Kelurahan Maya Sopa", "tanggal": "2026-08-24", "timestamp": "2026-08-24T01:13:00+07:00", "satelit": "NASA-SNPP", "confidence": "Medium"}}, {"type": "Feature", "geometry": {"type": "Point", "coordinates": [109.10106, 0.97867]}, "properties": {"kab_kota": "KOTA SINGKAWANG", "kecamatan": "Singkawang Timur", "desa": "Kelurahan Maya Sopa", "tanggal": "2026-08-24", "timestamp": "2026-08-24T01:13:00+07:00", "satelit": "NASA-SNPP", "confidence": "Medium"}}, {"type": "Feature", "geometry": {"type": "Point", "coordinates": [109.10333, 0.97645]}, "properties": {"kab_kota": "KOTA SINGKAWANG", "kecamatan": "Singkawang Timur", "desa": "Kelurahan Maya Sopa", "tanggal": "2026-08-25", "timestamp": "2026-08-25T00:56:00+07:00", "satelit": "NASA-SNPP", "confidence": "Medium"}}, {"type": "Feature", "geometry": {"type": "Point", "coordinates": [109.09921, 0.9778]}, "properties": {"kab_kota": "KOTA SINGKAWANG", "kecamatan": "Singkawang Timur", "desa": "Kelurahan Maya Sopa", "tanggal": "2026-08-25", "timestamp": "2026-08-25T13:35:00+07:00", "satelit": "NASA-SNPP", "confidence": "Medium"}}, {"type": "Feature", "geometry": {"type": "Point", "coordinates": [109.09496, 0.97828]}, "properties": {"kab_kota": "KOTA SINGKAWANG", "kecamatan": "Singkawang Timur", "desa": "Kelurahan Maya Sopa", "tanggal": "2026-08-30", "timestamp": "2026-08-30T01:02:00+07:00", "satelit": "NASA-SNPP", "confidence": "Medium"}}, {"type": "Feature", "geometry": {"type": "Point", "coordinates": [109.09717, 0.97983]}, "properties": {"kab_kota": "KOTA SINGKAWANG", "kecamatan": "Singkawang Timur", "desa": "Kelurahan Maya Sopa", "tanggal": "2026-08-30", "timestamp": "2026-08-30T01:02:00+07:00", "satelit": "NASA-SNPP", "confidence": "Medium"}}, {"type": "Feature", "geometry": {"type": "Point", "coordinates": [109.09233, 0.97753]}, "properties": {"kab_kota": "KOTA SINGKAWANG", "kecamatan": "Singkawang Timur", "desa": "Kelurahan Maya Sopa", "tanggal": "2026-08-30", "timestamp": "2026-08-30T13:44:00+07:00", "satelit": "NASA-SNPP", "confidence": "Medium"}}, {"type": "Feature", "geometry": {"type": "Point", "coordinates": [109.09637, 0.97815]}, "properties": {"kab_kota": "KOTA SINGKAWANG", "kecamatan": "Singkawang Timur", "desa": "Kelurahan Maya Sopa", "tanggal": "2026-08-30", "timestamp": "2026-08-30T13:44:00+07:00", "satelit": "NASA-SNPP", "confidence": "Medium"}}, {"type": "Feature", "geometry": {"type": "Point", "coordinates": [109.09169, 0.98185]}, "properties": {"kab_kota": "KOTA SINGKAWANG", "kecamatan": "Singkawang Timur", "desa": "Kelurahan Maya Sopa", "tanggal": "2026-08-30", "timestamp": "2026-08-30T13:44:00+07:00", "satelit": "NASA-SNPP", "confidence": "Medium"}}, {"type": "Feature", "geometry": {"type": "Point", "coordinates": [109.09512, 0.97932]}, "properties": {"kab_kota": "KOTA SINGKAWANG", "kecamatan": "Singkawang Timur", "desa": "Kelurahan Maya Sopa", "tanggal": "2026-08-31", "timestamp": "2026-08-31T00:43:00+07:00", "satelit": "NASA-SNPP", "confidence": "Medium"}}, {"type": "Feature", "geometry": {"type": "Point", "coordinates": [109.0915, 0.97987]}, "properties": {"kab_kota": "KOTA SINGKAWANG", "kecamatan": "Singkawang Timur", "desa": "Kelurahan Maya Sopa", "tanggal": "2026-08-31", "timestamp": "2026-08-31T00:43:00+07:00", "satelit": "NASA-SNPP", "confidence": "Medium"}}, {"type": "Feature", "geometry": {"type": "Point", "coordinates": [109.0946, 0.98033]}, "properties": {"kab_kota": "KOTA SINGKAWANG", "kecamatan": "Singkawang Timur", "desa": "Kelurahan Maya Sopa", "tanggal": "2026-08-31", "timestamp": "2026-08-31T00:43:00+07:00", "satelit": "NASA-SNPP", "confidence": "Medium"}}, {"type": "Feature", "geometry": {"type": "Point", "coordinates": [109.09098, 0.98091]}, "properties": {"kab_kota": "KOTA SINGKAWANG", "kecamatan": "Singkawang Timur", "desa": "Kelurahan Maya Sopa", "tanggal": "2026-08-31", "timestamp": "2026-08-31T00:43:00+07:00", "satelit": "NASA-SNPP", "confidence": "Medium"}}, {"type": "Feature", "geometry": {"type": "Point", "coordinates": [109.05853, 0.94988]}, "properties": {"kab_kota": "KOTA SINGKAWANG", "kecamatan": "Singkawang Timur", "desa": "Kelurahan Nyarumkop", "tanggal": "2026-08-15", "timestamp": "2026-08-15T13:22:00+07:00", "satelit": "NASA-SNPP", "confidence": "Medium"}}, {"type": "Feature", "geometry": {"type": "Point", "coordinates": [109.05899, 0.95036]}, "properties": {"kab_kota": "KOTA SINGKAWANG", "kecamatan": "Singkawang Timur", "desa": "Kelurahan Nyarumkop", "tanggal": "2026-08-30", "timestamp": "2026-08-30T13:44:00+07:00", "satelit": "NASA-SNPP", "confidence": "Medium"}}, {"type": "Feature", "geometry": {"type": "Point", "coordinates": [109.04878, 0.90891]}, "properties": {"kab_kota": "KOTA SINGKAWANG", "kecamatan": "Singkawang Timur", "desa": "Kelurahan Pajintan", "tanggal": "2026-08-09", "timestamp": "2026-08-09T13:35:00+07:00", "satelit": "NASA-SNPP", "confidence": "Medium"}}, {"type": "Feature", "geometry": {"type": "Point", "coordinates": [109.03207, 0.95006]}, "properties": {"kab_kota": "KOTA SINGKAWANG", "kecamatan": "Singkawang Utara", "desa": "Kelurahan Sungai Bulan", "tanggal": "2026-08-22", "timestamp": "2026-08-22T01:51:00+07:00", "satelit": "NASA-SNPP", "confidence": "Medium"}}, {"type": "Feature", "geometry": {"type": "Point", "coordinates": [109.02663, 0.95092]}, "properties": {"kab_kota": "KOTA SINGKAWANG", "kecamatan": "Singkawang Utara", "desa": "Kelurahan Sungai Bulan", "tanggal": "2026-08-22", "timestamp": "2026-08-22T01:51:00+07:00", "satelit": "NASA-SNPP", "confidence": "Medium"}}, {"type": "Feature", "geometry": {"type": "Point", "coordinates": [109.03213, 0.95053]}, "properties": {"kab_kota": "KOTA SINGKAWANG", "kecamatan": "Singkawang Utara", "desa": "Kelurahan Sungai Bulan", "tanggal": "2026-08-22", "timestamp": "2026-08-22T12:53:00+07:00", "satelit": "NASA-SNPP", "confidence": "Medium"}}, {"type": "Feature", "geometry": {"type": "Point", "coordinates": [109.03191, 0.95007]}, "properties": {"kab_kota": "KOTA SINGKAWANG", "kecamatan": "Singkawang Utara", "desa": "Kelurahan Sungai Bulan", "tanggal": "2026-08-23", "timestamp": "2026-08-23T01:32:00+07:00", "satelit": "NASA-SNPP", "confidence": "Medium"}}, {"type": "Feature", "geometry": {"type": "Point", "coordinates": [109.02779, 0.95072]}, "properties": {"kab_kota": "KOTA SINGKAWANG", "kecamatan": "Singkawang Utara", "desa": "Kelurahan Sungai Bulan", "tanggal": "2026-08-23", "timestamp": "2026-08-23T01:32:00+07:00", "satelit": "NASA-SNPP", "confidence": "Medium"}}, {"type": "Feature", "geometry": {"type": "Point", "coordinates": [109.03349, 0.95106]}, "properties": {"kab_kota": "KOTA SINGKAWANG", "kecamatan": "Singkawang Utara", "desa": "Kelurahan Sungai Bulan", "tanggal": "2026-08-24", "timestamp": "2026-08-24T01:13:00+07:00", "satelit": "NASA-SNPP", "confidence": "Medium"}}, {"type": "Feature", "geometry": {"type": "Point", "coordinates": [109.02985, 0.95164]}, "properties": {"kab_kota": "KOTA SINGKAWANG", "kecamatan": "Singkawang Utara", "desa": "Kelurahan Sungai Bulan", "tanggal": "2026-08-24", "timestamp": "2026-08-24T01:13:00+07:00", "satelit": "NASA-SNPP", "confidence": "Medium"}}, {"type": "Feature", "geometry": {"type": "Point", "coordinates": [109.03259, 0.95117]}, "properties": {"kab_kota": "KOTA SINGKAWANG", "kecamatan": "Singkawang Utara", "desa": "Kelurahan Sungai Bulan", "tanggal": "2026-08-25", "timestamp": "2026-08-25T00:56:00+07:00", "satelit": "NASA-SNPP", "confidence": "Medium"}}, {"type": "Feature", "geometry": {"type": "Point", "coordinates": [109.02821, 0.95185]}, "properties": {"kab_kota": "KOTA SINGKAWANG", "kecamatan": "Singkawang Utara", "desa": "Kelurahan Sungai Bulan", "tanggal": "2026-08-25", "timestamp": "2026-08-25T00:56:00+07:00", "satelit": "NASA-SNPP", "confidence": "Medium"}}, {"type": "Feature", "geometry": {"type": "Point", "coordinates": [109.05334, 0.94804]}, "properties": {"kab_kota": "KOTA SINGKAWANG", "kecamatan": "Singkawang Utara", "desa": "Kelurahan Sungai Bulan", "tanggal": "2026-08-30", "timestamp": "2026-08-30T01:02:00+07:00", "satelit": "NASA-SNPP", "confidence": "Medium"}}, {"type": "Feature", "geometry": {"type": "Point", "coordinates": [109.05447, 0.95271]}, "properties": {"kab_kota": "KOTA SINGKAWANG", "kecamatan": "Singkawang Utara", "desa": "Kelurahan Sungai Rasau", "tanggal": "2026-08-15", "timestamp": "2026-08-15T13:22:00+07:00", "satelit": "NASA-SNPP", "confidence": "Medium"}}, {"type": "Feature", "geometry": {"type": "Point", "coordinates": [109.03288, 0.95496]}, "properties": {"kab_kota": "KOTA SINGKAWANG", "kecamatan": "Singkawang Utara", "desa": "Kelurahan Sungai Rasau", "tanggal": "2026-08-22", "timestamp": "2026-08-22T01:51:00+07:00", "satelit": "NASA-SNPP", "confidence": "Medium"}}, {"type": "Feature", "geometry": {"type": "Point", "coordinates": [109.03248, 0.95368]}, "properties": {"kab_kota": "KOTA SINGKAWANG", "kecamatan": "Singkawang Utara", "desa": "Kelurahan Sungai Rasau", "tanggal": "2026-08-23", "timestamp": "2026-08-23T01:32:00+07:00", "satelit": "NASA-SNPP", "confidence": "Medium"}}, {"type": "Feature", "geometry": {"type": "Point", "coordinates": [109.02837, 0.95433]}, "properties": {"kab_kota": "KOTA SINGKAWANG", "kecamatan": "Singkawang Utara", "desa": "Kelurahan Sungai Rasau", "tanggal": "2026-08-23", "timestamp": "2026-08-23T01:32:00+07:00", "satelit": "NASA-SNPP", "confidence": "Medium"}}, {"type": "Feature", "geometry": {"type": "Point", "coordinates": [109.03403, 0.95446]}, "properties": {"kab_kota": "KOTA SINGKAWANG", "kecamatan": "Singkawang Utara", "desa": "Kelurahan Sungai Rasau", "tanggal": "2026-08-24", "timestamp": "2026-08-24T01:13:00+07:00", "satelit": "NASA-SNPP", "confidence": "Medium"}}, {"type": "Feature", "geometry": {"type": "Point", "coordinates": [109.0327, 0.95674]}, "properties": {"kab_kota": "KOTA SINGKAWANG", "kecamatan": "Singkawang Utara", "desa": "Kelurahan Sungai Rasau", "tanggal": "2026-08-28", "timestamp": "2026-08-28T01:41:00+07:00", "satelit": "NASA-SNPP", "confidence": "Medium"}}, {"type": "Feature", "geometry": {"type": "Point", "coordinates": [109.03561, 0.95526]}, "properties": {"kab_kota": "KOTA SINGKAWANG", "kecamatan": "Singkawang Utara", "desa": "Kelurahan Sungai Rasau", "tanggal": "2026-08-28", "timestamp": "2026-08-28T12:40:00+07:00", "satelit": "NASA-SNPP", "confidence": "Medium"}}, {"type": "Feature", "geometry": {"type": "Point", "coordinates": [109.0344, 0.95744]}, "properties": {"kab_kota": "KOTA SINGKAWANG", "kecamatan": "Singkawang Utara", "desa": "Kelurahan Sungai Rasau", "tanggal": "2026-08-29", "timestamp": "2026-08-29T01:19:00+07:00", "satelit": "NASA-SNPP", "confidence": "Medium"}}, {"type": "Feature", "geometry": {"type": "Point", "coordinates": [109.03096, 0.95799]}, "properties": {"kab_kota": "KOTA SINGKAWANG", "kecamatan": "Singkawang Utara", "desa": "Kelurahan Sungai Rasau", "tanggal": "2026-08-29", "timestamp": "2026-08-29T01:19:00+07:00", "satelit": "NASA-SNPP", "confidence": "Medium"}}, {"type": "Feature", "geometry": {"type": "Point", "coordinates": [109.05397, 0.95204]}, "properties": {"kab_kota": "KOTA SINGKAWANG", "kecamatan": "Singkawang Utara", "desa": "Kelurahan Sungai Rasau", "tanggal": "2026-08-30", "timestamp": "2026-08-30T01:02:00+07:00", "satelit": "NASA-SNPP", "confidence": "Medium"}}, {"type": "Feature", "geometry": {"type": "Point", "coordinates": [109.03413, 0.95517]}, "properties": {"kab_kota": "KOTA SINGKAWANG", "kecamatan": "Singkawang Utara", "desa": "Kelurahan Sungai Rasau", "tanggal": "2026-08-30", "timestamp": "2026-08-30T01:02:00+07:00", "satelit": "NASA-SNPP", "confidence": "Medium"}}, {"type": "Feature", "geometry": {"type": "Point", "coordinates": [109.03066, 0.95571]}, "properties": {"kab_kota": "KOTA SINGKAWANG", "kecamatan": "Singkawang Utara", "desa": "Kelurahan Sungai Rasau", "tanggal": "2026-08-30", "timestamp": "2026-08-30T01:02:00+07:00", "satelit": "NASA-SNPP", "confidence": "Medium"}}, {"type": "Feature", "geometry": {"type": "Point", "coordinates": [109.02721, 0.95626]}, "properties": {"kab_kota": "KOTA SINGKAWANG", "kecamatan": "Singkawang Utara", "desa": "Kelurahan Sungai Rasau", "tanggal": "2026-08-30", "timestamp": "2026-08-30T01:02:00+07:00", "satelit": "NASA-SNPP", "confidence": "Medium"}}, {"type": "Feature", "geometry": {"type": "Point", "coordinates": [109.03476, 0.95917]}, "properties": {"kab_kota": "KOTA SINGKAWANG", "kecamatan": "Singkawang Utara", "desa": "Kelurahan Sungai Rasau", "tanggal": "2026-08-30", "timestamp": "2026-08-30T01:02:00+07:00", "satelit": "NASA-SNPP", "confidence": "Medium"}}, {"type": "Feature", "geometry": {"type": "Point", "coordinates": [109.0313, 0.95972]}, "properties": {"kab_kota": "KOTA SINGKAWANG", "kecamatan": "Singkawang Utara", "desa": "Kelurahan Sungai Rasau", "tanggal": "2026-08-30", "timestamp": "2026-08-30T01:02:00+07:00", "satelit": "NASA-SNPP", "confidence": "Medium"}}, {"type": "Feature", "geometry": {"type": "Point", "coordinates": [109.02784, 0.96026]}, "properties": {"kab_kota": "KOTA SINGKAWANG", "kecamatan": "Singkawang Utara", "desa": "Kelurahan Sungai Rasau", "tanggal": "2026-08-30", "timestamp": "2026-08-30T01:02:00+07:00", "satelit": "NASA-SNPP", "confidence": "Medium"}}, {"type": "Feature", "geometry": {"type": "Point", "coordinates": [109.03357, 0.95529]}, "properties": {"kab_kota": "KOTA SINGKAWANG", "kecamatan": "Singkawang Utara", "desa": "Kelurahan Sungai Rasau", "tanggal": "2026-08-30", "timestamp": "2026-08-30T13:44:00+07:00", "satelit": "NASA-SNPP", "confidence": "Medium"}}, {"type": "Feature", "geometry": {"type": "Point", "coordinates": [109.03757, 0.9559]}, "properties": {"kab_kota": "KOTA SINGKAWANG", "kecamatan": "Singkawang Utara", "desa": "Kelurahan Sungai Rasau", "tanggal": "2026-08-30", "timestamp": "2026-08-30T13:44:00+07:00", "satelit": "NASA-SNPP", "confidence": "Medium"}}, {"type": "Feature", "geometry": {"type": "Point", "coordinates": [109.02892, 0.95898]}, "properties": {"kab_kota": "KOTA SINGKAWANG", "kecamatan": "Singkawang Utara", "desa": "Kelurahan Sungai Rasau", "tanggal": "2026-08-30", "timestamp": "2026-08-30T13:44:00+07:00", "satelit": "NASA-SNPP", "confidence": "Medium"}}, {"type": "Feature", "geometry": {"type": "Point", "coordinates": [109.05689, 0.95229]}, "properties": {"kab_kota": "KOTA SINGKAWANG", "kecamatan": "Singkawang Utara", "desa": "Kelurahan Sungai Rasau", "tanggal": "2026-08-31", "timestamp": "2026-08-31T00:43:00+07:00", "satelit": "NASA-SNPP", "confidence": "Medium"}}, {"type": "Feature", "geometry": {"type": "Point", "coordinates": [109.03506, 0.95571]}, "properties": {"kab_kota": "KOTA SINGKAWANG", "kecamatan": "Singkawang Utara", "desa": "Kelurahan Sungai Rasau", "tanggal": "2026-08-31", "timestamp": "2026-08-31T00:43:00+07:00", "satelit": "NASA-SNPP", "confidence": "Medium"}}, {"type": "Feature", "geometry": {"type": "Point", "coordinates": [109.03141, 0.95628]}, "properties": {"kab_kota": "KOTA SINGKAWANG", "kecamatan": "Singkawang Utara", "desa": "Kelurahan Sungai Rasau", "tanggal": "2026-08-31", "timestamp": "2026-08-31T00:43:00+07:00", "satelit": "NASA-SNPP", "confidence": "Medium"}}, {"type": "Feature", "geometry": {"type": "Point", "coordinates": [109.02775, 0.95686]}, "properties": {"kab_kota": "KOTA SINGKAWANG", "kecamatan": "Singkawang Utara", "desa": "Kelurahan Sungai Rasau", "tanggal": "2026-08-31", "timestamp": "2026-08-31T00:43:00+07:00", "satelit": "NASA-SNPP", "confidence": "Medium"}}, {"type": "Feature", "geometry": {"type": "Point", "coordinates": [109.02863, 0.9624]}, "properties": {"kab_kota": "KOTA SINGKAWANG", "kecamatan": "Singkawang Utara", "desa": "Kelurahan Sungai Rasau", "tanggal": "2026-08-31", "timestamp": "2026-08-31T00:43:00+07:00", "satelit": "NASA-SNPP", "confidence": "Medium"}}, {"type": "Feature", "geometry": {"type": "Point", "coordinates": [109.05729, 0.95156]}, "properties": {"kab_kota": "KOTA SINGKAWANG", "kecamatan": "Singkawang Utara", "desa": "Kelurahan Sungai Rasau", "tanggal": "2026-08-31", "timestamp": "2026-08-31T13:22:00+07:00", "satelit": "NASA-SNPP", "confidence": "Medium"}}, {"type": "Feature", "geometry": {"type": "Point", "coordinates": [109.03857, 0.9556]}, "properties": {"kab_kota": "KOTA SINGKAWANG", "kecamatan": "Singkawang Utara", "desa": "Kelurahan Sungai Rasau", "tanggal": "2026-08-31", "timestamp": "2026-08-31T13:22:00+07:00", "satelit": "NASA-SNPP", "confidence": "Medium"}}, {"type": "Feature", "geometry": {"type": "Point", "coordinates": [109.03098, 0.95788]}, "properties": {"kab_kota": "KOTA SINGKAWANG", "kecamatan": "Singkawang Utara", "desa": "Kelurahan Sungai Rasau", "tanggal": "2026-08-31", "timestamp": "2026-08-31T13:22:00+07:00", "satelit": "NASA-SNPP", "confidence": "Medium"}}, {"type": "Feature", "geometry": {"type": "Point", "coordinates": [109.03047, 0.96125]}, "properties": {"kab_kota": "KOTA SINGKAWANG", "kecamatan": "Singkawang Utara", "desa": "Kelurahan Sungai Rasau", "tanggal": "2026-08-31", "timestamp": "2026-08-31T13:22:00+07:00", "satelit": "NASA-SNPP", "confidence": "Medium"}}]}